<?xml version="1.0"?>
<gpx xmlns="http://www.topografix.com/GPX/1/1" xmlns:xsi="http://www.w3.org/2001/XMLSchema-instance" version="1.1" creator="AllTrails.com" xsi:schemaLocation="http://www.topografix.com/GPX/1/1 http://www.topografix.com/GPX/1/1/gpx.xsd">
  <metadata>
    <name><![CDATA[Belknap and Gunstock Loop Trail]]></name>
    <desc><![CDATA[]]></desc>
    <link href="http://www.alltrails.com">
      <text>AllTrails, LLC</text>
    </link>
    <bounds minlat="43.51167" minlon="-71.39071" maxlat="43.52644" maxlon="-71.36806"/>
  </metadata>
  <trk>
    <name><![CDATA[Belknap and Gunstock Loop Trail]]></name>
    <src>AllTrails</src>
    <trkseg>
      <trkpt lat="43.51779" lon="-71.39071">
        <ele>314.46</ele>
      </trkpt>
      <trkpt lat="43.51779" lon="-71.39071">
        <ele>314.46</ele>
      </trkpt>
      <trkpt lat="43.51769" lon="-71.39051">
        <ele>314.08</ele>
      </trkpt>
      <trkpt lat="43.51759" lon="-71.39033">
        <ele>313.97</ele>
      </trkpt>
      <trkpt lat="43.51736" lon="-71.38988">
        <ele>313.78</ele>
      </trkpt>
      <trkpt lat="43.51727" lon="-71.38975">
        <ele>313.52</ele>
      </trkpt>
      <trkpt lat="43.51736" lon="-71.38961">
        <ele>315.49</ele>
      </trkpt>
      <trkpt lat="43.51741" lon="-71.38947">
        <ele>316.82</ele>
      </trkpt>
      <trkpt lat="43.51743" lon="-71.38936">
        <ele>319.11</ele>
      </trkpt>
      <trkpt lat="43.51742" lon="-71.3891">
        <ele>322.75</ele>
      </trkpt>
      <trkpt lat="43.51745" lon="-71.38897">
        <ele>325.04</ele>
      </trkpt>
      <trkpt lat="43.51766" lon="-71.38838">
        <ele>333.09</ele>
      </trkpt>
      <trkpt lat="43.51773" lon="-71.38798">
        <ele>335.88</ele>
      </trkpt>
      <trkpt lat="43.5178" lon="-71.38771">
        <ele>337.48</ele>
      </trkpt>
      <trkpt lat="43.51784" lon="-71.3876">
        <ele>338.34</ele>
      </trkpt>
      <trkpt lat="43.51814" lon="-71.38711">
        <ele>347.81</ele>
      </trkpt>
      <trkpt lat="43.51842" lon="-71.38672">
        <ele>351.41</ele>
      </trkpt>
      <trkpt lat="43.51853" lon="-71.38659">
        <ele>353.27</ele>
      </trkpt>
      <trkpt lat="43.51863" lon="-71.38652">
        <ele>355.61</ele>
      </trkpt>
      <trkpt lat="43.51876" lon="-71.38647">
        <ele>359.7</ele>
      </trkpt>
      <trkpt lat="43.5191" lon="-71.38641">
        <ele>370.84</ele>
      </trkpt>
      <trkpt lat="43.51968" lon="-71.38618">
        <ele>387.49</ele>
      </trkpt>
      <trkpt lat="43.52004" lon="-71.3861">
        <ele>396.3</ele>
      </trkpt>
      <trkpt lat="43.52026" lon="-71.38613">
        <ele>403.07</ele>
      </trkpt>
      <trkpt lat="43.52054" lon="-71.38609">
        <ele>413.72</ele>
      </trkpt>
      <trkpt lat="43.52076" lon="-71.38602">
        <ele>419.4</ele>
      </trkpt>
      <trkpt lat="43.52103" lon="-71.38586">
        <ele>426.34</ele>
      </trkpt>
      <trkpt lat="43.52124" lon="-71.38579">
        <ele>432.46</ele>
      </trkpt>
      <trkpt lat="43.52145" lon="-71.38577">
        <ele>439.0</ele>
      </trkpt>
      <trkpt lat="43.5219" lon="-71.38548">
        <ele>452.52</ele>
      </trkpt>
      <trkpt lat="43.52194" lon="-71.3854">
        <ele>453.63</ele>
      </trkpt>
      <trkpt lat="43.52193" lon="-71.38513">
        <ele>454.69</ele>
      </trkpt>
      <trkpt lat="43.52194" lon="-71.38499">
        <ele>455.01</ele>
      </trkpt>
      <trkpt lat="43.52207" lon="-71.38467">
        <ele>459.07</ele>
      </trkpt>
      <trkpt lat="43.52218" lon="-71.38451">
        <ele>462.63</ele>
      </trkpt>
      <trkpt lat="43.52229" lon="-71.38438">
        <ele>466.01</ele>
      </trkpt>
      <trkpt lat="43.52251" lon="-71.38424">
        <ele>475.32</ele>
      </trkpt>
      <trkpt lat="43.52266" lon="-71.38404">
        <ele>480.91</ele>
      </trkpt>
      <trkpt lat="43.52279" lon="-71.38393">
        <ele>487.43</ele>
      </trkpt>
      <trkpt lat="43.52305" lon="-71.3838">
        <ele>495.74</ele>
      </trkpt>
      <trkpt lat="43.52311" lon="-71.38375">
        <ele>497.97</ele>
      </trkpt>
      <trkpt lat="43.52316" lon="-71.38368">
        <ele>500.77</ele>
      </trkpt>
      <trkpt lat="43.52318" lon="-71.38361">
        <ele>502.7</ele>
      </trkpt>
      <trkpt lat="43.5232" lon="-71.38328">
        <ele>509.58</ele>
      </trkpt>
      <trkpt lat="43.52324" lon="-71.3832">
        <ele>512.85</ele>
      </trkpt>
      <trkpt lat="43.52337" lon="-71.38299">
        <ele>522.6</ele>
      </trkpt>
      <trkpt lat="43.52353" lon="-71.38248">
        <ele>538.03</ele>
      </trkpt>
      <trkpt lat="43.52358" lon="-71.38217">
        <ele>543.85</ele>
      </trkpt>
      <trkpt lat="43.52358" lon="-71.38203">
        <ele>545.07</ele>
      </trkpt>
      <trkpt lat="43.52354" lon="-71.38179">
        <ele>546.52</ele>
      </trkpt>
      <trkpt lat="43.52352" lon="-71.38173">
        <ele>546.7</ele>
      </trkpt>
      <trkpt lat="43.52341" lon="-71.38156">
        <ele>549.16</ele>
      </trkpt>
      <trkpt lat="43.52323" lon="-71.38115">
        <ele>560.62</ele>
      </trkpt>
      <trkpt lat="43.52323" lon="-71.38101">
        <ele>564.15</ele>
      </trkpt>
      <trkpt lat="43.5233" lon="-71.38074">
        <ele>572.3</ele>
      </trkpt>
      <trkpt lat="43.52327" lon="-71.38049">
        <ele>577.27</ele>
      </trkpt>
      <trkpt lat="43.52329" lon="-71.38042">
        <ele>579.74</ele>
      </trkpt>
      <trkpt lat="43.52335" lon="-71.38037">
        <ele>582.37</ele>
      </trkpt>
      <trkpt lat="43.52343" lon="-71.3804">
        <ele>583.45</ele>
      </trkpt>
      <trkpt lat="43.52356" lon="-71.38052">
        <ele>582.6</ele>
      </trkpt>
      <trkpt lat="43.52364" lon="-71.38055">
        <ele>582.79</ele>
      </trkpt>
      <trkpt lat="43.52374" lon="-71.38057">
        <ele>584.38</ele>
      </trkpt>
      <trkpt lat="43.52384" lon="-71.38056">
        <ele>586.85</ele>
      </trkpt>
      <trkpt lat="43.52401" lon="-71.38049">
        <ele>593.65</ele>
      </trkpt>
      <trkpt lat="43.52422" lon="-71.38033">
        <ele>604.35</ele>
      </trkpt>
      <trkpt lat="43.5243" lon="-71.38023">
        <ele>608.58</ele>
      </trkpt>
      <trkpt lat="43.52441" lon="-71.38006">
        <ele>618.22</ele>
      </trkpt>
      <trkpt lat="43.52449" lon="-71.37999">
        <ele>623.13</ele>
      </trkpt>
      <trkpt lat="43.52481" lon="-71.37983">
        <ele>633.58</ele>
      </trkpt>
      <trkpt lat="43.52481" lon="-71.37983">
        <ele>633.58</ele>
      </trkpt>
      <trkpt lat="43.52486" lon="-71.37981">
        <ele>634.54</ele>
      </trkpt>
      <trkpt lat="43.52503" lon="-71.37976">
        <ele>638.11</ele>
      </trkpt>
      <trkpt lat="43.52509" lon="-71.3797">
        <ele>640.18</ele>
      </trkpt>
      <trkpt lat="43.52514" lon="-71.37962">
        <ele>642.74</ele>
      </trkpt>
      <trkpt lat="43.5252" lon="-71.37957">
        <ele>645.61</ele>
      </trkpt>
      <trkpt lat="43.52517" lon="-71.37947">
        <ele>646.96</ele>
      </trkpt>
      <trkpt lat="43.5251" lon="-71.37936">
        <ele>646.99</ele>
      </trkpt>
      <trkpt lat="43.52504" lon="-71.37924">
        <ele>646.62</ele>
      </trkpt>
      <trkpt lat="43.525" lon="-71.3791">
        <ele>647.72</ele>
      </trkpt>
      <trkpt lat="43.52504" lon="-71.37902">
        <ele>649.7</ele>
      </trkpt>
      <trkpt lat="43.5251" lon="-71.37894">
        <ele>653.3</ele>
      </trkpt>
      <trkpt lat="43.52518" lon="-71.3789">
        <ele>658.48</ele>
      </trkpt>
      <trkpt lat="43.52524" lon="-71.37895">
        <ele>660.64</ele>
      </trkpt>
      <trkpt lat="43.52531" lon="-71.379">
        <ele>662.71</ele>
      </trkpt>
      <trkpt lat="43.52536" lon="-71.379">
        <ele>664.44</ele>
      </trkpt>
      <trkpt lat="43.5254" lon="-71.37891">
        <ele>666.41</ele>
      </trkpt>
      <trkpt lat="43.52543" lon="-71.37878">
        <ele>668.46</ele>
      </trkpt>
      <trkpt lat="43.52547" lon="-71.37865">
        <ele>670.15</ele>
      </trkpt>
      <trkpt lat="43.52552" lon="-71.37856">
        <ele>671.44</ele>
      </trkpt>
      <trkpt lat="43.52557" lon="-71.37852">
        <ele>672.31</ele>
      </trkpt>
      <trkpt lat="43.52563" lon="-71.37852">
        <ele>673.61</ele>
      </trkpt>
      <trkpt lat="43.5257" lon="-71.37856">
        <ele>675.37</ele>
      </trkpt>
      <trkpt lat="43.52576" lon="-71.37863">
        <ele>677.83</ele>
      </trkpt>
      <trkpt lat="43.52581" lon="-71.37869">
        <ele>679.99</ele>
      </trkpt>
      <trkpt lat="43.52581" lon="-71.37869">
        <ele>679.99</ele>
      </trkpt>
      <trkpt lat="43.52581" lon="-71.37869">
        <ele>679.99</ele>
      </trkpt>
      <trkpt lat="43.52609" lon="-71.37866">
        <ele>685.23</ele>
      </trkpt>
      <trkpt lat="43.5262" lon="-71.37865">
        <ele>683.64</ele>
      </trkpt>
      <trkpt lat="43.52624" lon="-71.37862">
        <ele>683.51</ele>
      </trkpt>
      <trkpt lat="43.5263" lon="-71.37862">
        <ele>682.83</ele>
      </trkpt>
      <trkpt lat="43.52635" lon="-71.37864">
        <ele>681.71</ele>
      </trkpt>
      <trkpt lat="43.52644" lon="-71.37865">
        <ele>680.22</ele>
      </trkpt>
      <trkpt lat="43.52644" lon="-71.37866">
        <ele>680.16</ele>
      </trkpt>
      <trkpt lat="43.52624" lon="-71.37861">
        <ele>683.61</ele>
      </trkpt>
      <trkpt lat="43.52619" lon="-71.37862">
        <ele>684.07</ele>
      </trkpt>
      <trkpt lat="43.52613" lon="-71.37866">
        <ele>684.69</ele>
      </trkpt>
      <trkpt lat="43.52608" lon="-71.37866">
        <ele>685.34</ele>
      </trkpt>
      <trkpt lat="43.52603" lon="-71.37867">
        <ele>685.88</ele>
      </trkpt>
      <trkpt lat="43.52599" lon="-71.37868">
        <ele>685.69</ele>
      </trkpt>
      <trkpt lat="43.52594" lon="-71.37869">
        <ele>685.15</ele>
      </trkpt>
      <trkpt lat="43.52592" lon="-71.3787">
        <ele>684.74</ele>
      </trkpt>
      <trkpt lat="43.52557" lon="-71.37852">
        <ele>672.31</ele>
      </trkpt>
      <trkpt lat="43.52581" lon="-71.37869">
        <ele>679.99</ele>
      </trkpt>
      <trkpt lat="43.52576" lon="-71.37863">
        <ele>677.83</ele>
      </trkpt>
      <trkpt lat="43.5257" lon="-71.37856">
        <ele>675.37</ele>
      </trkpt>
      <trkpt lat="43.52563" lon="-71.37852">
        <ele>673.61</ele>
      </trkpt>
      <trkpt lat="43.52557" lon="-71.37852">
        <ele>672.31</ele>
      </trkpt>
      <trkpt lat="43.52537" lon="-71.37847">
        <ele>668.99</ele>
      </trkpt>
      <trkpt lat="43.52526" lon="-71.37841">
        <ele>666.79</ele>
      </trkpt>
      <trkpt lat="43.5252" lon="-71.3783">
        <ele>666.32</ele>
      </trkpt>
      <trkpt lat="43.52518" lon="-71.37804">
        <ele>665.9</ele>
      </trkpt>
      <trkpt lat="43.52516" lon="-71.37795">
        <ele>665.73</ele>
      </trkpt>
      <trkpt lat="43.52489" lon="-71.37739">
        <ele>655.44</ele>
      </trkpt>
      <trkpt lat="43.52489" lon="-71.37739">
        <ele>655.44</ele>
      </trkpt>
      <trkpt lat="43.52483" lon="-71.37727">
        <ele>653.33</ele>
      </trkpt>
      <trkpt lat="43.52482" lon="-71.37725">
        <ele>653.11</ele>
      </trkpt>
      <trkpt lat="43.52483" lon="-71.37725">
        <ele>653.33</ele>
      </trkpt>
      <trkpt lat="43.52479" lon="-71.37713">
        <ele>651.47</ele>
      </trkpt>
      <trkpt lat="43.52478" lon="-71.37692">
        <ele>649.98</ele>
      </trkpt>
      <trkpt lat="43.52472" lon="-71.37687">
        <ele>648.17</ele>
      </trkpt>
      <trkpt lat="43.52463" lon="-71.3768">
        <ele>646.44</ele>
      </trkpt>
      <trkpt lat="43.52454" lon="-71.37674">
        <ele>644.82</ele>
      </trkpt>
      <trkpt lat="43.52448" lon="-71.37673">
        <ele>644.07</ele>
      </trkpt>
      <trkpt lat="43.52437" lon="-71.37671">
        <ele>642.29</ele>
      </trkpt>
      <trkpt lat="43.52427" lon="-71.37668">
        <ele>641.12</ele>
      </trkpt>
      <trkpt lat="43.52421" lon="-71.37659">
        <ele>639.11</ele>
      </trkpt>
      <trkpt lat="43.52418" lon="-71.37647">
        <ele>637.04</ele>
      </trkpt>
      <trkpt lat="43.52416" lon="-71.37634">
        <ele>634.29</ele>
      </trkpt>
      <trkpt lat="43.52415" lon="-71.37619">
        <ele>631.16</ele>
      </trkpt>
      <trkpt lat="43.52416" lon="-71.37607">
        <ele>628.93</ele>
      </trkpt>
      <trkpt lat="43.52412" lon="-71.37597">
        <ele>626.21</ele>
      </trkpt>
      <trkpt lat="43.52414" lon="-71.37591">
        <ele>625.49</ele>
      </trkpt>
      <trkpt lat="43.52415" lon="-71.37585">
        <ele>624.85</ele>
      </trkpt>
      <trkpt lat="43.52414" lon="-71.37578">
        <ele>623.85</ele>
      </trkpt>
      <trkpt lat="43.52411" lon="-71.37574">
        <ele>622.76</ele>
      </trkpt>
      <trkpt lat="43.52411" lon="-71.37568">
        <ele>621.87</ele>
      </trkpt>
      <trkpt lat="43.52412" lon="-71.37561">
        <ele>621.08</ele>
      </trkpt>
      <trkpt lat="43.52416" lon="-71.37552">
        <ele>620.54</ele>
      </trkpt>
      <trkpt lat="43.52417" lon="-71.3755">
        <ele>620.44</ele>
      </trkpt>
      <trkpt lat="43.52424" lon="-71.37538">
        <ele>619.9</ele>
      </trkpt>
      <trkpt lat="43.52426" lon="-71.37517">
        <ele>618.84</ele>
      </trkpt>
      <trkpt lat="43.52419" lon="-71.37503">
        <ele>616.58</ele>
      </trkpt>
      <trkpt lat="43.52412" lon="-71.37496">
        <ele>615.28</ele>
      </trkpt>
      <trkpt lat="43.52412" lon="-71.37495">
        <ele>615.23</ele>
      </trkpt>
      <trkpt lat="43.52394" lon="-71.37486">
        <ele>613.77</ele>
      </trkpt>
      <trkpt lat="43.52362" lon="-71.37476">
        <ele>611.63</ele>
      </trkpt>
      <trkpt lat="43.52341" lon="-71.37458">
        <ele>611.0</ele>
      </trkpt>
      <trkpt lat="43.52311" lon="-71.37444">
        <ele>611.0</ele>
      </trkpt>
      <trkpt lat="43.52305" lon="-71.37441">
        <ele>610.96</ele>
      </trkpt>
      <trkpt lat="43.52305" lon="-71.37441">
        <ele>610.96</ele>
      </trkpt>
      <trkpt lat="43.52295" lon="-71.37435">
        <ele>610.88</ele>
      </trkpt>
      <trkpt lat="43.52287" lon="-71.37428">
        <ele>610.78</ele>
      </trkpt>
      <trkpt lat="43.52268" lon="-71.37402">
        <ele>616.34</ele>
      </trkpt>
      <trkpt lat="43.5224" lon="-71.37383">
        <ele>627.38</ele>
      </trkpt>
      <trkpt lat="43.52229" lon="-71.3737">
        <ele>630.31</ele>
      </trkpt>
      <trkpt lat="43.52223" lon="-71.37363">
        <ele>631.71</ele>
      </trkpt>
      <trkpt lat="43.52216" lon="-71.37347">
        <ele>634.2</ele>
      </trkpt>
      <trkpt lat="43.52209" lon="-71.3734">
        <ele>635.71</ele>
      </trkpt>
      <trkpt lat="43.52193" lon="-71.37335">
        <ele>637.95</ele>
      </trkpt>
      <trkpt lat="43.5219" lon="-71.37331">
        <ele>638.73</ele>
      </trkpt>
      <trkpt lat="43.52189" lon="-71.37321">
        <ele>639.92</ele>
      </trkpt>
      <trkpt lat="43.52193" lon="-71.37304">
        <ele>641.32</ele>
      </trkpt>
      <trkpt lat="43.52193" lon="-71.37292">
        <ele>642.62</ele>
      </trkpt>
      <trkpt lat="43.52191" lon="-71.37283">
        <ele>643.37</ele>
      </trkpt>
      <trkpt lat="43.52178" lon="-71.37265">
        <ele>646.07</ele>
      </trkpt>
      <trkpt lat="43.52174" lon="-71.37251">
        <ele>647.39</ele>
      </trkpt>
      <trkpt lat="43.52176" lon="-71.37217">
        <ele>648.55</ele>
      </trkpt>
      <trkpt lat="43.52174" lon="-71.37205">
        <ele>649.39</ele>
      </trkpt>
      <trkpt lat="43.52168" lon="-71.37189">
        <ele>650.71</ele>
      </trkpt>
      <trkpt lat="43.52148" lon="-71.37149">
        <ele>654.14</ele>
      </trkpt>
      <trkpt lat="43.52142" lon="-71.37142">
        <ele>655.99</ele>
      </trkpt>
      <trkpt lat="43.52121" lon="-71.37122">
        <ele>659.93</ele>
      </trkpt>
      <trkpt lat="43.52106" lon="-71.37114">
        <ele>662.55</ele>
      </trkpt>
      <trkpt lat="43.52099" lon="-71.37113">
        <ele>663.62</ele>
      </trkpt>
      <trkpt lat="43.52095" lon="-71.37115">
        <ele>664.48</ele>
      </trkpt>
      <trkpt lat="43.52085" lon="-71.37127">
        <ele>666.64</ele>
      </trkpt>
      <trkpt lat="43.5208" lon="-71.37131">
        <ele>667.72</ele>
      </trkpt>
      <trkpt lat="43.52052" lon="-71.37139">
        <ele>674.14</ele>
      </trkpt>
      <trkpt lat="43.52039" lon="-71.37141">
        <ele>677.35</ele>
      </trkpt>
      <trkpt lat="43.52016" lon="-71.37135">
        <ele>683.11</ele>
      </trkpt>
      <trkpt lat="43.52007" lon="-71.3713">
        <ele>685.16</ele>
      </trkpt>
      <trkpt lat="43.51988" lon="-71.37117">
        <ele>688.47</ele>
      </trkpt>
      <trkpt lat="43.51976" lon="-71.37105">
        <ele>691.71</ele>
      </trkpt>
      <trkpt lat="43.51972" lon="-71.37092">
        <ele>695.09</ele>
      </trkpt>
      <trkpt lat="43.51969" lon="-71.37073">
        <ele>698.46</ele>
      </trkpt>
      <trkpt lat="43.51965" lon="-71.37053">
        <ele>701.84</ele>
      </trkpt>
      <trkpt lat="43.51947" lon="-71.37003">
        <ele>710.12</ele>
      </trkpt>
      <trkpt lat="43.51941" lon="-71.36991">
        <ele>712.72</ele>
      </trkpt>
      <trkpt lat="43.51937" lon="-71.36986">
        <ele>713.61</ele>
      </trkpt>
      <trkpt lat="43.51926" lon="-71.36977">
        <ele>715.98</ele>
      </trkpt>
      <trkpt lat="43.51882" lon="-71.36951">
        <ele>721.22</ele>
      </trkpt>
      <trkpt lat="43.51882" lon="-71.36951">
        <ele>721.22</ele>
      </trkpt>
      <trkpt lat="43.51873" lon="-71.36945">
        <ele>721.98</ele>
      </trkpt>
      <trkpt lat="43.51859" lon="-71.36935">
        <ele>722.98</ele>
      </trkpt>
      <trkpt lat="43.51841" lon="-71.3693">
        <ele>723.54</ele>
      </trkpt>
      <trkpt lat="43.51825" lon="-71.3692">
        <ele>724.26</ele>
      </trkpt>
      <trkpt lat="43.51812" lon="-71.36916">
        <ele>725.21</ele>
      </trkpt>
      <trkpt lat="43.51805" lon="-71.36918">
        <ele>726.0</ele>
      </trkpt>
      <trkpt lat="43.51791" lon="-71.36929">
        <ele>726.14</ele>
      </trkpt>
      <trkpt lat="43.5177" lon="-71.3691">
        <ele>724.4</ele>
      </trkpt>
      <trkpt lat="43.5175" lon="-71.36885">
        <ele>723.0</ele>
      </trkpt>
      <trkpt lat="43.51743" lon="-71.36868">
        <ele>721.74</ele>
      </trkpt>
      <trkpt lat="43.51726" lon="-71.3685">
        <ele>719.8</ele>
      </trkpt>
      <trkpt lat="43.51706" lon="-71.36835">
        <ele>717.36</ele>
      </trkpt>
      <trkpt lat="43.51691" lon="-71.36835">
        <ele>717.11</ele>
      </trkpt>
      <trkpt lat="43.51657" lon="-71.3684">
        <ele>714.99</ele>
      </trkpt>
      <trkpt lat="43.51644" lon="-71.36838">
        <ele>714.28</ele>
      </trkpt>
      <trkpt lat="43.5163" lon="-71.3683">
        <ele>712.68</ele>
      </trkpt>
      <trkpt lat="43.51616" lon="-71.36817">
        <ele>710.76</ele>
      </trkpt>
      <trkpt lat="43.51593" lon="-71.36806">
        <ele>709.0</ele>
      </trkpt>
      <trkpt lat="43.51586" lon="-71.3681">
        <ele>708.63</ele>
      </trkpt>
      <trkpt lat="43.51564" lon="-71.36815">
        <ele>707.02</ele>
      </trkpt>
      <trkpt lat="43.51557" lon="-71.36821">
        <ele>707.1</ele>
      </trkpt>
      <trkpt lat="43.51552" lon="-71.36826">
        <ele>707.13</ele>
      </trkpt>
      <trkpt lat="43.51544" lon="-71.36846">
        <ele>707.28</ele>
      </trkpt>
      <trkpt lat="43.51534" lon="-71.36873">
        <ele>707.58</ele>
      </trkpt>
      <trkpt lat="43.51524" lon="-71.36887">
        <ele>705.18</ele>
      </trkpt>
      <trkpt lat="43.5151" lon="-71.36889">
        <ele>702.15</ele>
      </trkpt>
      <trkpt lat="43.51492" lon="-71.36886">
        <ele>698.58</ele>
      </trkpt>
      <trkpt lat="43.51485" lon="-71.36888">
        <ele>697.42</ele>
      </trkpt>
      <trkpt lat="43.51474" lon="-71.36901">
        <ele>694.32</ele>
      </trkpt>
      <trkpt lat="43.51461" lon="-71.36924">
        <ele>689.78</ele>
      </trkpt>
      <trkpt lat="43.51452" lon="-71.36954">
        <ele>684.6</ele>
      </trkpt>
      <trkpt lat="43.51441" lon="-71.36984">
        <ele>680.36</ele>
      </trkpt>
      <trkpt lat="43.51437" lon="-71.37003">
        <ele>677.87</ele>
      </trkpt>
      <trkpt lat="43.51437" lon="-71.37003">
        <ele>677.87</ele>
      </trkpt>
      <trkpt lat="43.51437" lon="-71.37006">
        <ele>677.55</ele>
      </trkpt>
      <trkpt lat="43.51431" lon="-71.3702">
        <ele>674.3</ele>
      </trkpt>
      <trkpt lat="43.5141" lon="-71.37031">
        <ele>669.68</ele>
      </trkpt>
      <trkpt lat="43.51401" lon="-71.37042">
        <ele>666.4</ele>
      </trkpt>
      <trkpt lat="43.51394" lon="-71.37063">
        <ele>661.86</ele>
      </trkpt>
      <trkpt lat="43.51394" lon="-71.37081">
        <ele>658.94</ele>
      </trkpt>
      <trkpt lat="43.51398" lon="-71.37098">
        <ele>655.82</ele>
      </trkpt>
      <trkpt lat="43.51395" lon="-71.37131">
        <ele>649.7</ele>
      </trkpt>
      <trkpt lat="43.51391" lon="-71.37141">
        <ele>647.6</ele>
      </trkpt>
      <trkpt lat="43.51379" lon="-71.37158">
        <ele>643.93</ele>
      </trkpt>
      <trkpt lat="43.51377" lon="-71.37167">
        <ele>642.68</ele>
      </trkpt>
      <trkpt lat="43.51372" lon="-71.37199">
        <ele>637.6</ele>
      </trkpt>
      <trkpt lat="43.51372" lon="-71.37234">
        <ele>630.46</ele>
      </trkpt>
      <trkpt lat="43.51368" lon="-71.37253">
        <ele>626.68</ele>
      </trkpt>
      <trkpt lat="43.51347" lon="-71.37283">
        <ele>623.44</ele>
      </trkpt>
      <trkpt lat="43.51296" lon="-71.37309">
        <ele>616.99</ele>
      </trkpt>
      <trkpt lat="43.51282" lon="-71.37313">
        <ele>615.65</ele>
      </trkpt>
      <trkpt lat="43.51261" lon="-71.37307">
        <ele>612.38</ele>
      </trkpt>
      <trkpt lat="43.51248" lon="-71.37311">
        <ele>609.35</ele>
      </trkpt>
      <trkpt lat="43.51233" lon="-71.37313">
        <ele>604.33</ele>
      </trkpt>
      <trkpt lat="43.51224" lon="-71.37323">
        <ele>601.39</ele>
      </trkpt>
      <trkpt lat="43.51217" lon="-71.37336">
        <ele>599.91</ele>
      </trkpt>
      <trkpt lat="43.51222" lon="-71.3736">
        <ele>601.95</ele>
      </trkpt>
      <trkpt lat="43.51229" lon="-71.37373">
        <ele>601.16</ele>
      </trkpt>
      <trkpt lat="43.51225" lon="-71.37388">
        <ele>598.4</ele>
      </trkpt>
      <trkpt lat="43.51218" lon="-71.37405">
        <ele>595.06</ele>
      </trkpt>
      <trkpt lat="43.51207" lon="-71.3741">
        <ele>593.08</ele>
      </trkpt>
      <trkpt lat="43.5119" lon="-71.37411">
        <ele>590.13</ele>
      </trkpt>
      <trkpt lat="43.51177" lon="-71.37415">
        <ele>588.14</ele>
      </trkpt>
      <trkpt lat="43.51172" lon="-71.37418">
        <ele>587.07</ele>
      </trkpt>
      <trkpt lat="43.51167" lon="-71.37426">
        <ele>586.03</ele>
      </trkpt>
      <trkpt lat="43.51174" lon="-71.37432">
        <ele>586.14</ele>
      </trkpt>
      <trkpt lat="43.51186" lon="-71.3744">
        <ele>586.57</ele>
      </trkpt>
      <trkpt lat="43.51203" lon="-71.3745">
        <ele>586.35</ele>
      </trkpt>
      <trkpt lat="43.51216" lon="-71.37462">
        <ele>584.21</ele>
      </trkpt>
      <trkpt lat="43.51234" lon="-71.3747">
        <ele>582.75</ele>
      </trkpt>
      <trkpt lat="43.51247" lon="-71.37473">
        <ele>582.8</ele>
      </trkpt>
      <trkpt lat="43.51255" lon="-71.37479">
        <ele>581.54</ele>
      </trkpt>
      <trkpt lat="43.51261" lon="-71.37485">
        <ele>579.93</ele>
      </trkpt>
      <trkpt lat="43.5127" lon="-71.37492">
        <ele>578.59</ele>
      </trkpt>
      <trkpt lat="43.51283" lon="-71.37497">
        <ele>576.97</ele>
      </trkpt>
      <trkpt lat="43.51297" lon="-71.37495">
        <ele>577.62</ele>
      </trkpt>
      <trkpt lat="43.51306" lon="-71.37496">
        <ele>577.25</ele>
      </trkpt>
      <trkpt lat="43.51312" lon="-71.37503">
        <ele>574.33</ele>
      </trkpt>
      <trkpt lat="43.51314" lon="-71.37513">
        <ele>571.24</ele>
      </trkpt>
      <trkpt lat="43.51313" lon="-71.37514">
        <ele>571.07</ele>
      </trkpt>
      <trkpt lat="43.51313" lon="-71.37514">
        <ele>571.07</ele>
      </trkpt>
      <trkpt lat="43.5131" lon="-71.37521">
        <ele>569.2</ele>
      </trkpt>
      <trkpt lat="43.51318" lon="-71.37527">
        <ele>567.22</ele>
      </trkpt>
      <trkpt lat="43.51318" lon="-71.37534">
        <ele>564.98</ele>
      </trkpt>
      <trkpt lat="43.51292" lon="-71.3755">
        <ele>561.61</ele>
      </trkpt>
      <trkpt lat="43.5126" lon="-71.37566">
        <ele>553.5</ele>
      </trkpt>
      <trkpt lat="43.51241" lon="-71.3757">
        <ele>550.35</ele>
      </trkpt>
      <trkpt lat="43.51217" lon="-71.37576">
        <ele>548.7</ele>
      </trkpt>
      <trkpt lat="43.51245" lon="-71.37604">
        <ele>541.66</ele>
      </trkpt>
      <trkpt lat="43.513" lon="-71.37646">
        <ele>522.16</ele>
      </trkpt>
      <trkpt lat="43.51338" lon="-71.37659">
        <ele>518.66</ele>
      </trkpt>
      <trkpt lat="43.51359" lon="-71.37671">
        <ele>514.82</ele>
      </trkpt>
      <trkpt lat="43.51373" lon="-71.37674">
        <ele>513.13</ele>
      </trkpt>
      <trkpt lat="43.51394" lon="-71.37673">
        <ele>509.84</ele>
      </trkpt>
      <trkpt lat="43.51408" lon="-71.37664">
        <ele>509.72</ele>
      </trkpt>
      <trkpt lat="43.51423" lon="-71.37665">
        <ele>505.43</ele>
      </trkpt>
      <trkpt lat="43.5147" lon="-71.37686">
        <ele>490.13</ele>
      </trkpt>
      <trkpt lat="43.51449" lon="-71.37713">
        <ele>487.01</ele>
      </trkpt>
      <trkpt lat="43.51448" lon="-71.37717">
        <ele>486.8</ele>
      </trkpt>
      <trkpt lat="43.51448" lon="-71.37724">
        <ele>485.92</ele>
      </trkpt>
      <trkpt lat="43.5145" lon="-71.37727">
        <ele>485.08</ele>
      </trkpt>
      <trkpt lat="43.51452" lon="-71.3773">
        <ele>484.37</ele>
      </trkpt>
      <trkpt lat="43.51468" lon="-71.37733">
        <ele>482.29</ele>
      </trkpt>
      <trkpt lat="43.51494" lon="-71.3774">
        <ele>477.16</ele>
      </trkpt>
      <trkpt lat="43.51511" lon="-71.37751">
        <ele>477.25</ele>
      </trkpt>
      <trkpt lat="43.51515" lon="-71.37759">
        <ele>476.67</ele>
      </trkpt>
      <trkpt lat="43.51519" lon="-71.37781">
        <ele>473.65</ele>
      </trkpt>
      <trkpt lat="43.5152" lon="-71.37794">
        <ele>471.74</ele>
      </trkpt>
      <trkpt lat="43.51519" lon="-71.37803">
        <ele>471.07</ele>
      </trkpt>
      <trkpt lat="43.51501" lon="-71.37919">
        <ele>464.11</ele>
      </trkpt>
      <trkpt lat="43.51499" lon="-71.37939">
        <ele>463.78</ele>
      </trkpt>
      <trkpt lat="43.515" lon="-71.37952">
        <ele>464.0</ele>
      </trkpt>
      <trkpt lat="43.51504" lon="-71.3797">
        <ele>462.57</ele>
      </trkpt>
      <trkpt lat="43.51504" lon="-71.37977">
        <ele>461.62</ele>
      </trkpt>
      <trkpt lat="43.515" lon="-71.37984">
        <ele>459.73</ele>
      </trkpt>
      <trkpt lat="43.51495" lon="-71.37989">
        <ele>458.65</ele>
      </trkpt>
      <trkpt lat="43.51491" lon="-71.37989">
        <ele>458.22</ele>
      </trkpt>
      <trkpt lat="43.51485" lon="-71.37984">
        <ele>457.94</ele>
      </trkpt>
      <trkpt lat="43.5148" lon="-71.37978">
        <ele>457.8</ele>
      </trkpt>
      <trkpt lat="43.51476" lon="-71.3796">
        <ele>456.77</ele>
      </trkpt>
      <trkpt lat="43.51475" lon="-71.37952">
        <ele>455.23</ele>
      </trkpt>
      <trkpt lat="43.51475" lon="-71.37943">
        <ele>453.6</ele>
      </trkpt>
      <trkpt lat="43.51477" lon="-71.3793">
        <ele>454.03</ele>
      </trkpt>
      <trkpt lat="43.51477" lon="-71.37923">
        <ele>454.03</ele>
      </trkpt>
      <trkpt lat="43.51471" lon="-71.37908">
        <ele>453.67</ele>
      </trkpt>
      <trkpt lat="43.51462" lon="-71.37891">
        <ele>453.56</ele>
      </trkpt>
      <trkpt lat="43.51451" lon="-71.37882">
        <ele>452.74</ele>
      </trkpt>
      <trkpt lat="43.51437" lon="-71.37882">
        <ele>451.94</ele>
      </trkpt>
      <trkpt lat="43.51429" lon="-71.37886">
        <ele>450.18</ele>
      </trkpt>
      <trkpt lat="43.51415" lon="-71.37897">
        <ele>447.97</ele>
      </trkpt>
      <trkpt lat="43.51373" lon="-71.37941">
        <ele>435.85</ele>
      </trkpt>
      <trkpt lat="43.51362" lon="-71.37958">
        <ele>432.98</ele>
      </trkpt>
      <trkpt lat="43.5136" lon="-71.37962">
        <ele>432.09</ele>
      </trkpt>
      <trkpt lat="43.5136" lon="-71.37962">
        <ele>432.09</ele>
      </trkpt>
      <trkpt lat="43.51355" lon="-71.37974">
        <ele>429.47</ele>
      </trkpt>
      <trkpt lat="43.51356" lon="-71.37981">
        <ele>428.6</ele>
      </trkpt>
      <trkpt lat="43.51358" lon="-71.37987">
        <ele>427.74</ele>
      </trkpt>
      <trkpt lat="43.51391" lon="-71.38024">
        <ele>422.09</ele>
      </trkpt>
      <trkpt lat="43.51394" lon="-71.38031">
        <ele>421.65</ele>
      </trkpt>
      <trkpt lat="43.51397" lon="-71.38042">
        <ele>420.46</ele>
      </trkpt>
      <trkpt lat="43.51399" lon="-71.38057">
        <ele>417.94</ele>
      </trkpt>
      <trkpt lat="43.5141" lon="-71.38091">
        <ele>415.45</ele>
      </trkpt>
      <trkpt lat="43.51415" lon="-71.38099">
        <ele>415.0</ele>
      </trkpt>
      <trkpt lat="43.51432" lon="-71.38118">
        <ele>411.0</ele>
      </trkpt>
      <trkpt lat="43.51441" lon="-71.3813">
        <ele>410.22</ele>
      </trkpt>
      <trkpt lat="43.51442" lon="-71.38134">
        <ele>410.0</ele>
      </trkpt>
      <trkpt lat="43.51442" lon="-71.38139">
        <ele>409.47</ele>
      </trkpt>
      <trkpt lat="43.5144" lon="-71.38143">
        <ele>409.04</ele>
      </trkpt>
      <trkpt lat="43.51437" lon="-71.38145">
        <ele>408.39</ele>
      </trkpt>
      <trkpt lat="43.5143" lon="-71.38145">
        <ele>407.07</ele>
      </trkpt>
      <trkpt lat="43.5142" lon="-71.38139">
        <ele>406.35</ele>
      </trkpt>
      <trkpt lat="43.51387" lon="-71.38123">
        <ele>404.37</ele>
      </trkpt>
      <trkpt lat="43.51374" lon="-71.38119">
        <ele>401.87</ele>
      </trkpt>
      <trkpt lat="43.51366" lon="-71.38123">
        <ele>401.0</ele>
      </trkpt>
      <trkpt lat="43.51362" lon="-71.38126">
        <ele>401.0</ele>
      </trkpt>
      <trkpt lat="43.5136" lon="-71.38129">
        <ele>401.12</ele>
      </trkpt>
      <trkpt lat="43.51357" lon="-71.3814">
        <ele>401.32</ele>
      </trkpt>
      <trkpt lat="43.51356" lon="-71.38148">
        <ele>400.57</ele>
      </trkpt>
      <trkpt lat="43.51358" lon="-71.38162">
        <ele>399.67</ele>
      </trkpt>
      <trkpt lat="43.51361" lon="-71.38173">
        <ele>399.02</ele>
      </trkpt>
      <trkpt lat="43.51372" lon="-71.38202">
        <ele>397.46</ele>
      </trkpt>
      <trkpt lat="43.5139" lon="-71.38255">
        <ele>389.62</ele>
      </trkpt>
      <trkpt lat="43.51408" lon="-71.38309">
        <ele>380.91</ele>
      </trkpt>
      <trkpt lat="43.51418" lon="-71.3834">
        <ele>375.99</ele>
      </trkpt>
      <trkpt lat="43.51441" lon="-71.38383">
        <ele>368.61</ele>
      </trkpt>
      <trkpt lat="43.51469" lon="-71.38435">
        <ele>362.35</ele>
      </trkpt>
      <trkpt lat="43.51481" lon="-71.38454">
        <ele>359.97</ele>
      </trkpt>
      <trkpt lat="43.51498" lon="-71.38481">
        <ele>356.22</ele>
      </trkpt>
      <trkpt lat="43.5153" lon="-71.38525">
        <ele>350.59</ele>
      </trkpt>
      <trkpt lat="43.51542" lon="-71.38545">
        <ele>348.46</ele>
      </trkpt>
      <trkpt lat="43.51549" lon="-71.38569">
        <ele>345.26</ele>
      </trkpt>
      <trkpt lat="43.51554" lon="-71.38599">
        <ele>341.42</ele>
      </trkpt>
      <trkpt lat="43.51554" lon="-71.38618">
        <ele>340.38</ele>
      </trkpt>
      <trkpt lat="43.51554" lon="-71.38635">
        <ele>339.59</ele>
      </trkpt>
      <trkpt lat="43.51552" lon="-71.38651">
        <ele>338.69</ele>
      </trkpt>
      <trkpt lat="43.51553" lon="-71.38669">
        <ele>336.93</ele>
      </trkpt>
      <trkpt lat="43.5156" lon="-71.38718">
        <ele>333.46</ele>
      </trkpt>
      <trkpt lat="43.51576" lon="-71.38801">
        <ele>327.49</ele>
      </trkpt>
      <trkpt lat="43.51579" lon="-71.38815">
        <ele>326.51</ele>
      </trkpt>
      <trkpt lat="43.51579" lon="-71.38815">
        <ele>326.51</ele>
      </trkpt>
      <trkpt lat="43.51593" lon="-71.38876">
        <ele>322.35</ele>
      </trkpt>
      <trkpt lat="43.516" lon="-71.38894">
        <ele>319.45</ele>
      </trkpt>
      <trkpt lat="43.51616" lon="-71.38904">
        <ele>318.37</ele>
      </trkpt>
      <trkpt lat="43.51635" lon="-71.38909">
        <ele>316.42</ele>
      </trkpt>
      <trkpt lat="43.51659" lon="-71.38914">
        <ele>313.12</ele>
      </trkpt>
      <trkpt lat="43.51678" lon="-71.3892">
        <ele>311.72</ele>
      </trkpt>
      <trkpt lat="43.51688" lon="-71.38928">
        <ele>312.24</ele>
      </trkpt>
      <trkpt lat="43.5172" lon="-71.38956">
        <ele>313.76</ele>
      </trkpt>
      <trkpt lat="43.51723" lon="-71.38966">
        <ele>313.76</ele>
      </trkpt>
      <trkpt lat="43.51726" lon="-71.38973">
        <ele>313.41</ele>
      </trkpt>
      <trkpt lat="43.51728" lon="-71.38978">
        <ele>313.62</ele>
      </trkpt>
      <trkpt lat="43.51731" lon="-71.38985">
        <ele>313.59</ele>
      </trkpt>
      <trkpt lat="43.51737" lon="-71.38992">
        <ele>313.6</ele>
      </trkpt>
      <trkpt lat="43.5174" lon="-71.38999">
        <ele>313.92</ele>
      </trkpt>
      <trkpt lat="43.51745" lon="-71.39008">
        <ele>313.6</ele>
      </trkpt>
      <trkpt lat="43.51748" lon="-71.39014">
        <ele>313.78</ele>
      </trkpt>
      <trkpt lat="43.51751" lon="-71.39019">
        <ele>314.06</ele>
      </trkpt>
      <trkpt lat="43.51756" lon="-71.3903">
        <ele>313.65</ele>
      </trkpt>
      <trkpt lat="43.51758" lon="-71.39035">
        <ele>313.86</ele>
      </trkpt>
      <trkpt lat="43.51761" lon="-71.3904">
        <ele>313.87</ele>
      </trkpt>
      <trkpt lat="43.51765" lon="-71.39046">
        <ele>313.65</ele>
      </trkpt>
      <trkpt lat="43.51768" lon="-71.39051">
        <ele>313.94</ele>
      </trkpt>
      <trkpt lat="43.51772" lon="-71.39057">
        <ele>314.28</ele>
      </trkpt>
      <trkpt lat="43.51775" lon="-71.39061">
        <ele>314.52</ele>
      </trkpt>
      <trkpt lat="43.51778" lon="-71.39066">
        <ele>314.9</ele>
      </trkpt>
      <trkpt lat="43.51779" lon="-71.39071">
        <ele>314.46</ele>
      </trkpt>
    </trkseg>
  </trk>
</gpx>
