<?xml version="1.0"?>
<gpx xmlns="http://www.topografix.com/GPX/1/1" xmlns:xsi="http://www.w3.org/2001/XMLSchema-instance" version="1.1" creator="AllTrails.com" xsi:schemaLocation="http://www.topografix.com/GPX/1/1 http://www.topografix.com/GPX/1/1/gpx.xsd">
  <metadata>
    <name><![CDATA[East Quarry, North Straightback, and Mount Major]]></name>
    <desc><![CDATA[]]></desc>
    <link href="http://www.alltrails.com">
      <text>AllTrails, LLC</text>
    </link>
    <bounds minlat="43.51028" minlon="-71.31806" maxlat="43.52686" maxlon="-71.28728"/>
  </metadata>
  <trk>
    <name><![CDATA[East Quarry, North Straightback, and Mount Major]]></name>
    <src>AllTrails</src>
    <trkseg>
      <trkpt lat="43.52686" lon="-71.31731">
        <ele>302.91</ele>
      </trkpt>
      <trkpt lat="43.5268" lon="-71.31734">
        <ele>303.56</ele>
      </trkpt>
      <trkpt lat="43.52658" lon="-71.31742">
        <ele>305.94</ele>
      </trkpt>
      <trkpt lat="43.52638" lon="-71.31747">
        <ele>308.1</ele>
      </trkpt>
      <trkpt lat="43.52619" lon="-71.31751">
        <ele>310.15</ele>
      </trkpt>
      <trkpt lat="43.5256" lon="-71.31773">
        <ele>316.52</ele>
      </trkpt>
      <trkpt lat="43.52493" lon="-71.31794">
        <ele>326.0</ele>
      </trkpt>
      <trkpt lat="43.52471" lon="-71.31799">
        <ele>328.09</ele>
      </trkpt>
      <trkpt lat="43.52461" lon="-71.31802">
        <ele>328.51</ele>
      </trkpt>
      <trkpt lat="43.52447" lon="-71.31806">
        <ele>329.69</ele>
      </trkpt>
      <trkpt lat="43.5244" lon="-71.31804">
        <ele>330.08</ele>
      </trkpt>
      <trkpt lat="43.52425" lon="-71.31794">
        <ele>331.32</ele>
      </trkpt>
      <trkpt lat="43.52405" lon="-71.3178">
        <ele>333.2</ele>
      </trkpt>
      <trkpt lat="43.52386" lon="-71.31759">
        <ele>335.03</ele>
      </trkpt>
      <trkpt lat="43.52371" lon="-71.31744">
        <ele>336.6</ele>
      </trkpt>
      <trkpt lat="43.52332" lon="-71.31721">
        <ele>340.02</ele>
      </trkpt>
      <trkpt lat="43.52319" lon="-71.31715">
        <ele>340.9</ele>
      </trkpt>
      <trkpt lat="43.52314" lon="-71.31708">
        <ele>341.62</ele>
      </trkpt>
      <trkpt lat="43.52294" lon="-71.31669">
        <ele>346.43</ele>
      </trkpt>
      <trkpt lat="43.52289" lon="-71.31655">
        <ele>347.79</ele>
      </trkpt>
      <trkpt lat="43.52278" lon="-71.31616">
        <ele>350.45</ele>
      </trkpt>
      <trkpt lat="43.52271" lon="-71.31593">
        <ele>351.73</ele>
      </trkpt>
      <trkpt lat="43.52269" lon="-71.31583">
        <ele>352.9</ele>
      </trkpt>
      <trkpt lat="43.5227" lon="-71.3157">
        <ele>352.84</ele>
      </trkpt>
      <trkpt lat="43.52273" lon="-71.31529">
        <ele>352.52</ele>
      </trkpt>
      <trkpt lat="43.5227" lon="-71.315">
        <ele>353.84</ele>
      </trkpt>
      <trkpt lat="43.52267" lon="-71.31491">
        <ele>355.14</ele>
      </trkpt>
      <trkpt lat="43.52258" lon="-71.31477">
        <ele>357.62</ele>
      </trkpt>
      <trkpt lat="43.52242" lon="-71.31464">
        <ele>359.89</ele>
      </trkpt>
      <trkpt lat="43.52238" lon="-71.31457">
        <ele>360.83</ele>
      </trkpt>
      <trkpt lat="43.52233" lon="-71.31442">
        <ele>363.1</ele>
      </trkpt>
      <trkpt lat="43.52204" lon="-71.31396">
        <ele>372.18</ele>
      </trkpt>
      <trkpt lat="43.52178" lon="-71.31342">
        <ele>381.84</ele>
      </trkpt>
      <trkpt lat="43.52159" lon="-71.3132">
        <ele>385.71</ele>
      </trkpt>
      <trkpt lat="43.5212" lon="-71.31288">
        <ele>394.98</ele>
      </trkpt>
      <trkpt lat="43.52117" lon="-71.31281">
        <ele>396.38</ele>
      </trkpt>
      <trkpt lat="43.52116" lon="-71.31267">
        <ele>398.11</ele>
      </trkpt>
      <trkpt lat="43.52114" lon="-71.31258">
        <ele>399.51</ele>
      </trkpt>
      <trkpt lat="43.5211" lon="-71.31252">
        <ele>400.9</ele>
      </trkpt>
      <trkpt lat="43.52093" lon="-71.31239">
        <ele>406.1</ele>
      </trkpt>
      <trkpt lat="43.52063" lon="-71.3124">
        <ele>411.29</ele>
      </trkpt>
      <trkpt lat="43.52049" lon="-71.31228">
        <ele>415.35</ele>
      </trkpt>
      <trkpt lat="43.5205" lon="-71.3121">
        <ele>418.11</ele>
      </trkpt>
      <trkpt lat="43.52047" lon="-71.31202">
        <ele>420.03</ele>
      </trkpt>
      <trkpt lat="43.52032" lon="-71.312">
        <ele>422.16</ele>
      </trkpt>
      <trkpt lat="43.52047" lon="-71.3116">
        <ele>425.31</ele>
      </trkpt>
      <trkpt lat="43.52054" lon="-71.31151">
        <ele>425.03</ele>
      </trkpt>
      <trkpt lat="43.52062" lon="-71.31131">
        <ele>427.05</ele>
      </trkpt>
      <trkpt lat="43.52069" lon="-71.31121">
        <ele>427.03</ele>
      </trkpt>
      <trkpt lat="43.52062" lon="-71.31115">
        <ele>429.77</ele>
      </trkpt>
      <trkpt lat="43.52046" lon="-71.31124">
        <ele>431.28</ele>
      </trkpt>
      <trkpt lat="43.52015" lon="-71.31108">
        <ele>442.43</ele>
      </trkpt>
      <trkpt lat="43.52019" lon="-71.31099">
        <ele>443.51</ele>
      </trkpt>
      <trkpt lat="43.52003" lon="-71.31084">
        <ele>450.21</ele>
      </trkpt>
      <trkpt lat="43.52019" lon="-71.31069">
        <ele>450.04</ele>
      </trkpt>
      <trkpt lat="43.52013" lon="-71.31064">
        <ele>452.32</ele>
      </trkpt>
      <trkpt lat="43.52005" lon="-71.31057">
        <ele>454.3</ele>
      </trkpt>
      <trkpt lat="43.51991" lon="-71.31048">
        <ele>457.6</ele>
      </trkpt>
      <trkpt lat="43.52003" lon="-71.31039">
        <ele>457.4</ele>
      </trkpt>
      <trkpt lat="43.52009" lon="-71.31025">
        <ele>458.66</ele>
      </trkpt>
      <trkpt lat="43.52011" lon="-71.31015">
        <ele>460.38</ele>
      </trkpt>
      <trkpt lat="43.52011" lon="-71.31006">
        <ele>462.33</ele>
      </trkpt>
      <trkpt lat="43.52008" lon="-71.30999">
        <ele>464.47</ele>
      </trkpt>
      <trkpt lat="43.51994" lon="-71.30993">
        <ele>467.89</ele>
      </trkpt>
      <trkpt lat="43.51988" lon="-71.3099">
        <ele>469.73</ele>
      </trkpt>
      <trkpt lat="43.51982" lon="-71.30985">
        <ele>471.54</ele>
      </trkpt>
      <trkpt lat="43.51984" lon="-71.30973">
        <ele>473.31</ele>
      </trkpt>
      <trkpt lat="43.51992" lon="-71.30967">
        <ele>472.99</ele>
      </trkpt>
      <trkpt lat="43.51998" lon="-71.3094">
        <ele>477.29</ele>
      </trkpt>
      <trkpt lat="43.51999" lon="-71.30923">
        <ele>479.85</ele>
      </trkpt>
      <trkpt lat="43.52006" lon="-71.30914">
        <ele>480.28</ele>
      </trkpt>
      <trkpt lat="43.52015" lon="-71.30896">
        <ele>481.7</ele>
      </trkpt>
      <trkpt lat="43.52016" lon="-71.30887">
        <ele>482.9</ele>
      </trkpt>
      <trkpt lat="43.52015" lon="-71.30878">
        <ele>484.56</ele>
      </trkpt>
      <trkpt lat="43.52012" lon="-71.30877">
        <ele>484.99</ele>
      </trkpt>
      <trkpt lat="43.52002" lon="-71.3088">
        <ele>485.74</ele>
      </trkpt>
      <trkpt lat="43.51988" lon="-71.30895">
        <ele>486.27</ele>
      </trkpt>
      <trkpt lat="43.51977" lon="-71.30895">
        <ele>488.81</ele>
      </trkpt>
      <trkpt lat="43.51969" lon="-71.30883">
        <ele>493.97</ele>
      </trkpt>
      <trkpt lat="43.51967" lon="-71.30854">
        <ele>499.66</ele>
      </trkpt>
      <trkpt lat="43.51966" lon="-71.3082">
        <ele>506.22</ele>
      </trkpt>
      <trkpt lat="43.51968" lon="-71.30794">
        <ele>510.16</ele>
      </trkpt>
      <trkpt lat="43.51966" lon="-71.30786">
        <ele>511.49</ele>
      </trkpt>
      <trkpt lat="43.51963" lon="-71.30783">
        <ele>512.43</ele>
      </trkpt>
      <trkpt lat="43.51946" lon="-71.30773">
        <ele>516.35</ele>
      </trkpt>
      <trkpt lat="43.51927" lon="-71.30758">
        <ele>521.02</ele>
      </trkpt>
      <trkpt lat="43.51916" lon="-71.30757">
        <ele>522.39</ele>
      </trkpt>
      <trkpt lat="43.51903" lon="-71.30768">
        <ele>524.01</ele>
      </trkpt>
      <trkpt lat="43.51896" lon="-71.30771">
        <ele>525.4</ele>
      </trkpt>
      <trkpt lat="43.51878" lon="-71.30775">
        <ele>527.48</ele>
      </trkpt>
      <trkpt lat="43.51862" lon="-71.30774">
        <ele>529.85</ele>
      </trkpt>
      <trkpt lat="43.51852" lon="-71.30771">
        <ele>531.7</ele>
      </trkpt>
      <trkpt lat="43.51839" lon="-71.30758">
        <ele>534.52</ele>
      </trkpt>
      <trkpt lat="43.51832" lon="-71.30755">
        <ele>535.6</ele>
      </trkpt>
      <trkpt lat="43.51788" lon="-71.3075">
        <ele>541.9</ele>
      </trkpt>
      <trkpt lat="43.51772" lon="-71.3074">
        <ele>544.7</ele>
      </trkpt>
      <trkpt lat="43.51737" lon="-71.30725">
        <ele>548.98</ele>
      </trkpt>
      <trkpt lat="43.51711" lon="-71.3073">
        <ele>550.53</ele>
      </trkpt>
      <trkpt lat="43.51686" lon="-71.30731">
        <ele>553.1</ele>
      </trkpt>
      <trkpt lat="43.51672" lon="-71.30744">
        <ele>553.0</ele>
      </trkpt>
      <trkpt lat="43.51653" lon="-71.30747">
        <ele>553.32</ele>
      </trkpt>
      <trkpt lat="43.51628" lon="-71.30746">
        <ele>553.0</ele>
      </trkpt>
      <trkpt lat="43.51609" lon="-71.30746">
        <ele>553.0</ele>
      </trkpt>
      <trkpt lat="43.51608" lon="-71.30743">
        <ele>553.0</ele>
      </trkpt>
      <trkpt lat="43.51612" lon="-71.30718">
        <ele>557.78</ele>
      </trkpt>
      <trkpt lat="43.51619" lon="-71.30692">
        <ele>566.53</ele>
      </trkpt>
      <trkpt lat="43.51621" lon="-71.3067">
        <ele>572.21</ele>
      </trkpt>
      <trkpt lat="43.5162" lon="-71.30657">
        <ele>574.0</ele>
      </trkpt>
      <trkpt lat="43.51613" lon="-71.30612">
        <ele>574.2</ele>
      </trkpt>
      <trkpt lat="43.51607" lon="-71.30585">
        <ele>571.74</ele>
      </trkpt>
      <trkpt lat="43.51607" lon="-71.30565">
        <ele>568.04</ele>
      </trkpt>
      <trkpt lat="43.51609" lon="-71.30551">
        <ele>565.62</ele>
      </trkpt>
      <trkpt lat="43.51631" lon="-71.30508">
        <ele>558.86</ele>
      </trkpt>
      <trkpt lat="43.51644" lon="-71.30494">
        <ele>558.19</ele>
      </trkpt>
      <trkpt lat="43.51654" lon="-71.30468">
        <ele>555.26</ele>
      </trkpt>
      <trkpt lat="43.51654" lon="-71.30459">
        <ele>553.08</ele>
      </trkpt>
      <trkpt lat="43.5165" lon="-71.30453">
        <ele>551.63</ele>
      </trkpt>
      <trkpt lat="43.51635" lon="-71.30448">
        <ele>552.03</ele>
      </trkpt>
      <trkpt lat="43.51624" lon="-71.30439">
        <ele>550.82</ele>
      </trkpt>
      <trkpt lat="43.5161" lon="-71.30439">
        <ele>550.82</ele>
      </trkpt>
      <trkpt lat="43.51588" lon="-71.30447">
        <ele>552.28</ele>
      </trkpt>
      <trkpt lat="43.51554" lon="-71.3047">
        <ele>553.59</ele>
      </trkpt>
      <trkpt lat="43.51544" lon="-71.30473">
        <ele>552.84</ele>
      </trkpt>
      <trkpt lat="43.51531" lon="-71.30472">
        <ele>551.32</ele>
      </trkpt>
      <trkpt lat="43.51496" lon="-71.30475">
        <ele>548.7</ele>
      </trkpt>
      <trkpt lat="43.51473" lon="-71.30481">
        <ele>547.95</ele>
      </trkpt>
      <trkpt lat="43.51452" lon="-71.30483">
        <ele>546.85</ele>
      </trkpt>
      <trkpt lat="43.51444" lon="-71.30482">
        <ele>546.01</ele>
      </trkpt>
      <trkpt lat="43.51424" lon="-71.30472">
        <ele>543.77</ele>
      </trkpt>
      <trkpt lat="43.51393" lon="-71.3046">
        <ele>540.12</ele>
      </trkpt>
      <trkpt lat="43.51378" lon="-71.30457">
        <ele>538.29</ele>
      </trkpt>
      <trkpt lat="43.51357" lon="-71.30456">
        <ele>537.14</ele>
      </trkpt>
      <trkpt lat="43.51349" lon="-71.30454">
        <ele>537.0</ele>
      </trkpt>
      <trkpt lat="43.51335" lon="-71.30446">
        <ele>536.17</ele>
      </trkpt>
      <trkpt lat="43.5132" lon="-71.30442">
        <ele>535.74</ele>
      </trkpt>
      <trkpt lat="43.51299" lon="-71.3043">
        <ele>535.0</ele>
      </trkpt>
      <trkpt lat="43.51292" lon="-71.3043">
        <ele>535.0</ele>
      </trkpt>
      <trkpt lat="43.51279" lon="-71.30435">
        <ele>535.02</ele>
      </trkpt>
      <trkpt lat="43.51267" lon="-71.30434">
        <ele>536.48</ele>
      </trkpt>
      <trkpt lat="43.51251" lon="-71.30421">
        <ele>543.21</ele>
      </trkpt>
      <trkpt lat="43.51239" lon="-71.3041">
        <ele>548.23</ele>
      </trkpt>
      <trkpt lat="43.5122" lon="-71.30412">
        <ele>554.35</ele>
      </trkpt>
      <trkpt lat="43.5121" lon="-71.30412">
        <ele>557.65</ele>
      </trkpt>
      <trkpt lat="43.51199" lon="-71.30406">
        <ele>561.9</ele>
      </trkpt>
      <trkpt lat="43.51184" lon="-71.30411">
        <ele>564.01</ele>
      </trkpt>
      <trkpt lat="43.51169" lon="-71.30406">
        <ele>567.2</ele>
      </trkpt>
      <trkpt lat="43.51168" lon="-71.30399">
        <ele>569.58</ele>
      </trkpt>
      <trkpt lat="43.5117" lon="-71.30389">
        <ele>571.62</ele>
      </trkpt>
      <trkpt lat="43.51167" lon="-71.30382">
        <ele>573.45</ele>
      </trkpt>
      <trkpt lat="43.51152" lon="-71.30353">
        <ele>576.88</ele>
      </trkpt>
      <trkpt lat="43.51145" lon="-71.30327">
        <ele>579.68</ele>
      </trkpt>
      <trkpt lat="43.51142" lon="-71.30321">
        <ele>580.11</ele>
      </trkpt>
      <trkpt lat="43.5114" lon="-71.30319">
        <ele>580.07</ele>
      </trkpt>
      <trkpt lat="43.51121" lon="-71.30312">
        <ele>578.07</ele>
      </trkpt>
      <trkpt lat="43.51095" lon="-71.30321">
        <ele>576.75</ele>
      </trkpt>
      <trkpt lat="43.51076" lon="-71.30321">
        <ele>574.88</ele>
      </trkpt>
      <trkpt lat="43.51067" lon="-71.30307">
        <ele>569.94</ele>
      </trkpt>
      <trkpt lat="43.51051" lon="-71.3029">
        <ele>561.79</ele>
      </trkpt>
      <trkpt lat="43.5104" lon="-71.30276">
        <ele>556.74</ele>
      </trkpt>
      <trkpt lat="43.51035" lon="-71.30265">
        <ele>552.64</ele>
      </trkpt>
      <trkpt lat="43.51034" lon="-71.30254">
        <ele>549.15</ele>
      </trkpt>
      <trkpt lat="43.51033" lon="-71.30245">
        <ele>546.38</ele>
      </trkpt>
      <trkpt lat="43.51031" lon="-71.30232">
        <ele>543.11</ele>
      </trkpt>
      <trkpt lat="43.51028" lon="-71.30217">
        <ele>539.85</ele>
      </trkpt>
      <trkpt lat="43.5103" lon="-71.30199">
        <ele>536.63</ele>
      </trkpt>
      <trkpt lat="43.5103" lon="-71.30186">
        <ele>534.63</ele>
      </trkpt>
      <trkpt lat="43.5103" lon="-71.30175">
        <ele>532.66</ele>
      </trkpt>
      <trkpt lat="43.51035" lon="-71.30167">
        <ele>531.26</ele>
      </trkpt>
      <trkpt lat="43.51036" lon="-71.30153">
        <ele>529.64</ele>
      </trkpt>
      <trkpt lat="43.51036" lon="-71.30147">
        <ele>528.99</ele>
      </trkpt>
      <trkpt lat="43.51037" lon="-71.30133">
        <ele>527.37</ele>
      </trkpt>
      <trkpt lat="43.51039" lon="-71.30128">
        <ele>526.61</ele>
      </trkpt>
      <trkpt lat="43.51045" lon="-71.30116">
        <ele>525.07</ele>
      </trkpt>
      <trkpt lat="43.51051" lon="-71.30106">
        <ele>523.94</ele>
      </trkpt>
      <trkpt lat="43.5106" lon="-71.3008">
        <ele>520.16</ele>
      </trkpt>
      <trkpt lat="43.51066" lon="-71.30072">
        <ele>518.78</ele>
      </trkpt>
      <trkpt lat="43.51069" lon="-71.30064">
        <ele>517.96</ele>
      </trkpt>
      <trkpt lat="43.51071" lon="-71.30059">
        <ele>517.58</ele>
      </trkpt>
      <trkpt lat="43.51077" lon="-71.30045">
        <ele>516.68</ele>
      </trkpt>
      <trkpt lat="43.51083" lon="-71.3003">
        <ele>516.8</ele>
      </trkpt>
      <trkpt lat="43.51092" lon="-71.3002">
        <ele>516.06</ele>
      </trkpt>
      <trkpt lat="43.51096" lon="-71.30011">
        <ele>516.44</ele>
      </trkpt>
      <trkpt lat="43.51099" lon="-71.30001">
        <ele>517.2</ele>
      </trkpt>
      <trkpt lat="43.51102" lon="-71.29994">
        <ele>516.98</ele>
      </trkpt>
      <trkpt lat="43.51107" lon="-71.29987">
        <ele>516.85</ele>
      </trkpt>
      <trkpt lat="43.51108" lon="-71.29979">
        <ele>517.6</ele>
      </trkpt>
      <trkpt lat="43.51105" lon="-71.29971">
        <ele>518.79</ele>
      </trkpt>
      <trkpt lat="43.51099" lon="-71.29961">
        <ele>520.97</ele>
      </trkpt>
      <trkpt lat="43.51096" lon="-71.2995">
        <ele>523.03</ele>
      </trkpt>
      <trkpt lat="43.51097" lon="-71.29949">
        <ele>523.03</ele>
      </trkpt>
      <trkpt lat="43.51096" lon="-71.2995">
        <ele>523.03</ele>
      </trkpt>
      <trkpt lat="43.51094" lon="-71.2994">
        <ele>524.33</ele>
      </trkpt>
      <trkpt lat="43.51095" lon="-71.2993">
        <ele>525.3</ele>
      </trkpt>
      <trkpt lat="43.5109" lon="-71.29916">
        <ele>527.07</ele>
      </trkpt>
      <trkpt lat="43.51085" lon="-71.29903">
        <ele>528.48</ele>
      </trkpt>
      <trkpt lat="43.51082" lon="-71.29893">
        <ele>529.48</ele>
      </trkpt>
      <trkpt lat="43.51078" lon="-71.29881">
        <ele>529.91</ele>
      </trkpt>
      <trkpt lat="43.51088" lon="-71.29864">
        <ele>531.35</ele>
      </trkpt>
      <trkpt lat="43.51098" lon="-71.29836">
        <ele>531.7</ele>
      </trkpt>
      <trkpt lat="43.51105" lon="-71.29812">
        <ele>529.7</ele>
      </trkpt>
      <trkpt lat="43.51113" lon="-71.29796">
        <ele>527.99</ele>
      </trkpt>
      <trkpt lat="43.51128" lon="-71.2978">
        <ele>526.18</ele>
      </trkpt>
      <trkpt lat="43.51145" lon="-71.29755">
        <ele>522.88</ele>
      </trkpt>
      <trkpt lat="43.51151" lon="-71.29745">
        <ele>521.69</ele>
      </trkpt>
      <trkpt lat="43.51166" lon="-71.2971">
        <ele>516.82</ele>
      </trkpt>
      <trkpt lat="43.51167" lon="-71.29696">
        <ele>514.26</ele>
      </trkpt>
      <trkpt lat="43.51164" lon="-71.29676">
        <ele>512.3</ele>
      </trkpt>
      <trkpt lat="43.51163" lon="-71.29658">
        <ele>510.46</ele>
      </trkpt>
      <trkpt lat="43.51167" lon="-71.29634">
        <ele>506.89</ele>
      </trkpt>
      <trkpt lat="43.51178" lon="-71.29603">
        <ele>499.9</ele>
      </trkpt>
      <trkpt lat="43.51188" lon="-71.29581">
        <ele>496.44</ele>
      </trkpt>
      <trkpt lat="43.51195" lon="-71.2956">
        <ele>493.36</ele>
      </trkpt>
      <trkpt lat="43.51219" lon="-71.29502">
        <ele>485.35</ele>
      </trkpt>
      <trkpt lat="43.51235" lon="-71.29471">
        <ele>483.67</ele>
      </trkpt>
      <trkpt lat="43.51232" lon="-71.29459">
        <ele>484.4</ele>
      </trkpt>
      <trkpt lat="43.51232" lon="-71.29449">
        <ele>485.48</ele>
      </trkpt>
      <trkpt lat="43.51235" lon="-71.29435">
        <ele>487.01</ele>
      </trkpt>
      <trkpt lat="43.51248" lon="-71.29399">
        <ele>489.0</ele>
      </trkpt>
      <trkpt lat="43.51252" lon="-71.29378">
        <ele>490.0</ele>
      </trkpt>
      <trkpt lat="43.51255" lon="-71.293">
        <ele>494.82</ele>
      </trkpt>
      <trkpt lat="43.51254" lon="-71.29291">
        <ele>495.57</ele>
      </trkpt>
      <trkpt lat="43.51251" lon="-71.29283">
        <ele>496.44</ele>
      </trkpt>
      <trkpt lat="43.51235" lon="-71.29262">
        <ele>498.22</ele>
      </trkpt>
      <trkpt lat="43.51228" lon="-71.29245">
        <ele>502.62</ele>
      </trkpt>
      <trkpt lat="43.51228" lon="-71.29229">
        <ele>506.54</ele>
      </trkpt>
      <trkpt lat="43.51233" lon="-71.29184">
        <ele>514.98</ele>
      </trkpt>
      <trkpt lat="43.51233" lon="-71.29172">
        <ele>516.78</ele>
      </trkpt>
      <trkpt lat="43.51228" lon="-71.29141">
        <ele>520.0</ele>
      </trkpt>
      <trkpt lat="43.51231" lon="-71.29114">
        <ele>522.69</ele>
      </trkpt>
      <trkpt lat="43.51231" lon="-71.29088">
        <ele>524.5</ele>
      </trkpt>
      <trkpt lat="43.51229" lon="-71.29065">
        <ele>525.26</ele>
      </trkpt>
      <trkpt lat="43.51229" lon="-71.2904">
        <ele>526.0</ele>
      </trkpt>
      <trkpt lat="43.51231" lon="-71.29023">
        <ele>526.52</ele>
      </trkpt>
      <trkpt lat="43.51237" lon="-71.29008">
        <ele>527.14</ele>
      </trkpt>
      <trkpt lat="43.51243" lon="-71.28981">
        <ele>529.04</ele>
      </trkpt>
      <trkpt lat="43.5125" lon="-71.2893">
        <ele>534.56</ele>
      </trkpt>
      <trkpt lat="43.51263" lon="-71.28894">
        <ele>538.45</ele>
      </trkpt>
      <trkpt lat="43.51275" lon="-71.28872">
        <ele>539.82</ele>
      </trkpt>
      <trkpt lat="43.51289" lon="-71.28857">
        <ele>540.35</ele>
      </trkpt>
      <trkpt lat="43.51301" lon="-71.28846">
        <ele>540.31</ele>
      </trkpt>
      <trkpt lat="43.5133" lon="-71.2883">
        <ele>537.95</ele>
      </trkpt>
      <trkpt lat="43.51341" lon="-71.28819">
        <ele>537.72</ele>
      </trkpt>
      <trkpt lat="43.51346" lon="-71.28811">
        <ele>538.41</ele>
      </trkpt>
      <trkpt lat="43.51355" lon="-71.28791">
        <ele>539.85</ele>
      </trkpt>
      <trkpt lat="43.5137" lon="-71.28728">
        <ele>545.0</ele>
      </trkpt>
      <trkpt lat="43.5137" lon="-71.28728">
        <ele>545.0</ele>
      </trkpt>
      <trkpt lat="43.51355" lon="-71.28791">
        <ele>539.85</ele>
      </trkpt>
      <trkpt lat="43.51346" lon="-71.28811">
        <ele>538.41</ele>
      </trkpt>
      <trkpt lat="43.51341" lon="-71.28819">
        <ele>537.72</ele>
      </trkpt>
      <trkpt lat="43.5133" lon="-71.2883">
        <ele>537.95</ele>
      </trkpt>
      <trkpt lat="43.51301" lon="-71.28846">
        <ele>540.31</ele>
      </trkpt>
      <trkpt lat="43.51289" lon="-71.28857">
        <ele>540.35</ele>
      </trkpt>
      <trkpt lat="43.51275" lon="-71.28872">
        <ele>539.82</ele>
      </trkpt>
      <trkpt lat="43.51263" lon="-71.28894">
        <ele>538.45</ele>
      </trkpt>
      <trkpt lat="43.5125" lon="-71.2893">
        <ele>534.56</ele>
      </trkpt>
      <trkpt lat="43.51243" lon="-71.28981">
        <ele>529.04</ele>
      </trkpt>
      <trkpt lat="43.51237" lon="-71.29008">
        <ele>527.14</ele>
      </trkpt>
      <trkpt lat="43.51231" lon="-71.29023">
        <ele>526.52</ele>
      </trkpt>
      <trkpt lat="43.51229" lon="-71.2904">
        <ele>526.0</ele>
      </trkpt>
      <trkpt lat="43.51229" lon="-71.29065">
        <ele>525.26</ele>
      </trkpt>
      <trkpt lat="43.51231" lon="-71.29088">
        <ele>524.5</ele>
      </trkpt>
      <trkpt lat="43.51231" lon="-71.29114">
        <ele>522.69</ele>
      </trkpt>
      <trkpt lat="43.51228" lon="-71.29141">
        <ele>520.0</ele>
      </trkpt>
      <trkpt lat="43.51233" lon="-71.29172">
        <ele>516.78</ele>
      </trkpt>
      <trkpt lat="43.51233" lon="-71.29184">
        <ele>514.98</ele>
      </trkpt>
      <trkpt lat="43.51228" lon="-71.29229">
        <ele>506.54</ele>
      </trkpt>
      <trkpt lat="43.51228" lon="-71.29245">
        <ele>502.62</ele>
      </trkpt>
      <trkpt lat="43.51235" lon="-71.29262">
        <ele>498.22</ele>
      </trkpt>
      <trkpt lat="43.51251" lon="-71.29283">
        <ele>496.44</ele>
      </trkpt>
      <trkpt lat="43.51254" lon="-71.29291">
        <ele>495.57</ele>
      </trkpt>
      <trkpt lat="43.51255" lon="-71.293">
        <ele>494.82</ele>
      </trkpt>
      <trkpt lat="43.51252" lon="-71.29378">
        <ele>490.0</ele>
      </trkpt>
      <trkpt lat="43.51248" lon="-71.29399">
        <ele>489.0</ele>
      </trkpt>
      <trkpt lat="43.51235" lon="-71.29435">
        <ele>487.01</ele>
      </trkpt>
      <trkpt lat="43.51232" lon="-71.29449">
        <ele>485.48</ele>
      </trkpt>
      <trkpt lat="43.51232" lon="-71.29459">
        <ele>484.4</ele>
      </trkpt>
      <trkpt lat="43.51235" lon="-71.29471">
        <ele>483.67</ele>
      </trkpt>
      <trkpt lat="43.51239" lon="-71.29477">
        <ele>483.19</ele>
      </trkpt>
      <trkpt lat="43.51267" lon="-71.29488">
        <ele>479.33</ele>
      </trkpt>
      <trkpt lat="43.51277" lon="-71.29496">
        <ele>476.2</ele>
      </trkpt>
      <trkpt lat="43.51282" lon="-71.29503">
        <ele>475.09</ele>
      </trkpt>
      <trkpt lat="43.51293" lon="-71.29534">
        <ele>473.5</ele>
      </trkpt>
      <trkpt lat="43.51299" lon="-71.29546">
        <ele>472.41</ele>
      </trkpt>
      <trkpt lat="43.51319" lon="-71.29571">
        <ele>468.1</ele>
      </trkpt>
      <trkpt lat="43.51332" lon="-71.29582">
        <ele>465.29</ele>
      </trkpt>
      <trkpt lat="43.51344" lon="-71.29589">
        <ele>462.54</ele>
      </trkpt>
      <trkpt lat="43.51377" lon="-71.29601">
        <ele>450.14</ele>
      </trkpt>
      <trkpt lat="43.51387" lon="-71.29601">
        <ele>446.61</ele>
      </trkpt>
      <trkpt lat="43.51438" lon="-71.29588">
        <ele>431.39</ele>
      </trkpt>
      <trkpt lat="43.51494" lon="-71.29587">
        <ele>414.16</ele>
      </trkpt>
      <trkpt lat="43.51507" lon="-71.29589">
        <ele>410.88</ele>
      </trkpt>
      <trkpt lat="43.51558" lon="-71.29633">
        <ele>399.64</ele>
      </trkpt>
      <trkpt lat="43.51571" lon="-71.29642">
        <ele>396.66</ele>
      </trkpt>
      <trkpt lat="43.51578" lon="-71.29643">
        <ele>394.54</ele>
      </trkpt>
      <trkpt lat="43.51584" lon="-71.29641">
        <ele>392.48</ele>
      </trkpt>
      <trkpt lat="43.51575" lon="-71.29661">
        <ele>394.66</ele>
      </trkpt>
      <trkpt lat="43.51552" lon="-71.29695">
        <ele>398.38</ele>
      </trkpt>
      <trkpt lat="43.51543" lon="-71.29723">
        <ele>398.27</ele>
      </trkpt>
      <trkpt lat="43.51533" lon="-71.2974">
        <ele>397.0</ele>
      </trkpt>
      <trkpt lat="43.51525" lon="-71.29758">
        <ele>397.6</ele>
      </trkpt>
      <trkpt lat="43.51522" lon="-71.29764">
        <ele>398.95</ele>
      </trkpt>
      <trkpt lat="43.51512" lon="-71.29794">
        <ele>405.91</ele>
      </trkpt>
      <trkpt lat="43.51511" lon="-71.29807">
        <ele>409.09</ele>
      </trkpt>
      <trkpt lat="43.51511" lon="-71.29813">
        <ele>411.04</ele>
      </trkpt>
      <trkpt lat="43.51503" lon="-71.29842">
        <ele>421.16</ele>
      </trkpt>
      <trkpt lat="43.51499" lon="-71.2985">
        <ele>424.51</ele>
      </trkpt>
      <trkpt lat="43.51488" lon="-71.29864">
        <ele>429.4</ele>
      </trkpt>
      <trkpt lat="43.51484" lon="-71.29876">
        <ele>432.55</ele>
      </trkpt>
      <trkpt lat="43.51474" lon="-71.29918">
        <ele>445.43</ele>
      </trkpt>
      <trkpt lat="43.51473" lon="-71.29926">
        <ele>448.02</ele>
      </trkpt>
      <trkpt lat="43.51481" lon="-71.29973">
        <ele>458.3</ele>
      </trkpt>
      <trkpt lat="43.51481" lon="-71.29987">
        <ele>462.22</ele>
      </trkpt>
      <trkpt lat="43.51476" lon="-71.30026">
        <ele>473.61</ele>
      </trkpt>
      <trkpt lat="43.51464" lon="-71.30056">
        <ele>483.98</ele>
      </trkpt>
      <trkpt lat="43.51454" lon="-71.30072">
        <ele>488.74</ele>
      </trkpt>
      <trkpt lat="43.51419" lon="-71.30097">
        <ele>496.7</ele>
      </trkpt>
      <trkpt lat="43.51404" lon="-71.30115">
        <ele>501.94</ele>
      </trkpt>
      <trkpt lat="43.51378" lon="-71.30134">
        <ele>509.12</ele>
      </trkpt>
      <trkpt lat="43.51373" lon="-71.30142">
        <ele>511.63</ele>
      </trkpt>
      <trkpt lat="43.51367" lon="-71.30161">
        <ele>517.89</ele>
      </trkpt>
      <trkpt lat="43.5136" lon="-71.30176">
        <ele>521.25</ele>
      </trkpt>
      <trkpt lat="43.5135" lon="-71.30189">
        <ele>524.69</ele>
      </trkpt>
      <trkpt lat="43.5133" lon="-71.30204">
        <ele>530.39</ele>
      </trkpt>
      <trkpt lat="43.51314" lon="-71.30218">
        <ele>532.63</ele>
      </trkpt>
      <trkpt lat="43.51301" lon="-71.30226">
        <ele>534.7</ele>
      </trkpt>
      <trkpt lat="43.51282" lon="-71.3023">
        <ele>537.38</ele>
      </trkpt>
      <trkpt lat="43.51274" lon="-71.30234">
        <ele>539.66</ele>
      </trkpt>
      <trkpt lat="43.51265" lon="-71.30243">
        <ele>544.01</ele>
      </trkpt>
      <trkpt lat="43.5125" lon="-71.30251">
        <ele>552.11</ele>
      </trkpt>
      <trkpt lat="43.51233" lon="-71.30257">
        <ele>558.65</ele>
      </trkpt>
      <trkpt lat="43.51204" lon="-71.30272">
        <ele>571.06</ele>
      </trkpt>
      <trkpt lat="43.5119" lon="-71.30286">
        <ele>576.37</ele>
      </trkpt>
      <trkpt lat="43.51166" lon="-71.30306">
        <ele>580.96</ele>
      </trkpt>
      <trkpt lat="43.5114" lon="-71.30319">
        <ele>580.07</ele>
      </trkpt>
      <trkpt lat="43.51142" lon="-71.30321">
        <ele>580.11</ele>
      </trkpt>
      <trkpt lat="43.51145" lon="-71.30327">
        <ele>579.68</ele>
      </trkpt>
      <trkpt lat="43.51152" lon="-71.30353">
        <ele>576.88</ele>
      </trkpt>
      <trkpt lat="43.51167" lon="-71.30382">
        <ele>573.45</ele>
      </trkpt>
      <trkpt lat="43.5117" lon="-71.30389">
        <ele>571.62</ele>
      </trkpt>
      <trkpt lat="43.51168" lon="-71.30399">
        <ele>569.58</ele>
      </trkpt>
      <trkpt lat="43.51169" lon="-71.30406">
        <ele>567.2</ele>
      </trkpt>
      <trkpt lat="43.51184" lon="-71.30411">
        <ele>564.01</ele>
      </trkpt>
      <trkpt lat="43.51199" lon="-71.30406">
        <ele>561.9</ele>
      </trkpt>
      <trkpt lat="43.5121" lon="-71.30412">
        <ele>557.65</ele>
      </trkpt>
      <trkpt lat="43.5122" lon="-71.30412">
        <ele>554.35</ele>
      </trkpt>
      <trkpt lat="43.51239" lon="-71.3041">
        <ele>548.23</ele>
      </trkpt>
      <trkpt lat="43.51251" lon="-71.30421">
        <ele>543.21</ele>
      </trkpt>
      <trkpt lat="43.51267" lon="-71.30434">
        <ele>536.48</ele>
      </trkpt>
      <trkpt lat="43.51279" lon="-71.30435">
        <ele>535.02</ele>
      </trkpt>
      <trkpt lat="43.51292" lon="-71.3043">
        <ele>535.0</ele>
      </trkpt>
      <trkpt lat="43.51299" lon="-71.3043">
        <ele>535.0</ele>
      </trkpt>
      <trkpt lat="43.5132" lon="-71.30442">
        <ele>535.74</ele>
      </trkpt>
      <trkpt lat="43.51335" lon="-71.30446">
        <ele>536.17</ele>
      </trkpt>
      <trkpt lat="43.51349" lon="-71.30454">
        <ele>537.0</ele>
      </trkpt>
      <trkpt lat="43.51357" lon="-71.30456">
        <ele>537.14</ele>
      </trkpt>
      <trkpt lat="43.51378" lon="-71.30457">
        <ele>538.29</ele>
      </trkpt>
      <trkpt lat="43.51393" lon="-71.3046">
        <ele>540.12</ele>
      </trkpt>
      <trkpt lat="43.51424" lon="-71.30472">
        <ele>543.77</ele>
      </trkpt>
      <trkpt lat="43.51444" lon="-71.30482">
        <ele>546.01</ele>
      </trkpt>
      <trkpt lat="43.51452" lon="-71.30483">
        <ele>546.85</ele>
      </trkpt>
      <trkpt lat="43.51473" lon="-71.30481">
        <ele>547.95</ele>
      </trkpt>
      <trkpt lat="43.51496" lon="-71.30475">
        <ele>548.7</ele>
      </trkpt>
      <trkpt lat="43.51531" lon="-71.30472">
        <ele>551.32</ele>
      </trkpt>
      <trkpt lat="43.51544" lon="-71.30473">
        <ele>552.84</ele>
      </trkpt>
      <trkpt lat="43.51554" lon="-71.3047">
        <ele>553.59</ele>
      </trkpt>
      <trkpt lat="43.51588" lon="-71.30447">
        <ele>552.28</ele>
      </trkpt>
      <trkpt lat="43.5161" lon="-71.30439">
        <ele>550.82</ele>
      </trkpt>
      <trkpt lat="43.51624" lon="-71.30439">
        <ele>550.82</ele>
      </trkpt>
      <trkpt lat="43.51635" lon="-71.30448">
        <ele>552.03</ele>
      </trkpt>
      <trkpt lat="43.5165" lon="-71.30453">
        <ele>551.63</ele>
      </trkpt>
      <trkpt lat="43.51654" lon="-71.30459">
        <ele>553.08</ele>
      </trkpt>
      <trkpt lat="43.51654" lon="-71.30468">
        <ele>555.26</ele>
      </trkpt>
      <trkpt lat="43.51644" lon="-71.30494">
        <ele>558.19</ele>
      </trkpt>
      <trkpt lat="43.51631" lon="-71.30508">
        <ele>558.86</ele>
      </trkpt>
      <trkpt lat="43.51609" lon="-71.30551">
        <ele>565.62</ele>
      </trkpt>
      <trkpt lat="43.51607" lon="-71.30565">
        <ele>568.04</ele>
      </trkpt>
      <trkpt lat="43.51607" lon="-71.30585">
        <ele>571.74</ele>
      </trkpt>
      <trkpt lat="43.51613" lon="-71.30612">
        <ele>574.2</ele>
      </trkpt>
      <trkpt lat="43.5162" lon="-71.30657">
        <ele>574.0</ele>
      </trkpt>
      <trkpt lat="43.51621" lon="-71.3067">
        <ele>572.21</ele>
      </trkpt>
      <trkpt lat="43.51619" lon="-71.30692">
        <ele>566.53</ele>
      </trkpt>
      <trkpt lat="43.51612" lon="-71.30718">
        <ele>557.78</ele>
      </trkpt>
      <trkpt lat="43.51608" lon="-71.30743">
        <ele>553.0</ele>
      </trkpt>
      <trkpt lat="43.51609" lon="-71.30746">
        <ele>553.0</ele>
      </trkpt>
      <trkpt lat="43.51628" lon="-71.30746">
        <ele>553.0</ele>
      </trkpt>
      <trkpt lat="43.51653" lon="-71.30747">
        <ele>553.32</ele>
      </trkpt>
      <trkpt lat="43.51672" lon="-71.30744">
        <ele>553.0</ele>
      </trkpt>
      <trkpt lat="43.51686" lon="-71.30731">
        <ele>553.1</ele>
      </trkpt>
      <trkpt lat="43.51711" lon="-71.3073">
        <ele>550.53</ele>
      </trkpt>
      <trkpt lat="43.51737" lon="-71.30725">
        <ele>548.98</ele>
      </trkpt>
      <trkpt lat="43.51772" lon="-71.3074">
        <ele>544.7</ele>
      </trkpt>
      <trkpt lat="43.51788" lon="-71.3075">
        <ele>541.9</ele>
      </trkpt>
      <trkpt lat="43.51832" lon="-71.30755">
        <ele>535.6</ele>
      </trkpt>
      <trkpt lat="43.51839" lon="-71.30758">
        <ele>534.52</ele>
      </trkpt>
      <trkpt lat="43.51852" lon="-71.30771">
        <ele>531.7</ele>
      </trkpt>
      <trkpt lat="43.51862" lon="-71.30774">
        <ele>529.85</ele>
      </trkpt>
      <trkpt lat="43.51878" lon="-71.30775">
        <ele>527.48</ele>
      </trkpt>
      <trkpt lat="43.51896" lon="-71.30771">
        <ele>525.4</ele>
      </trkpt>
      <trkpt lat="43.51903" lon="-71.30768">
        <ele>524.01</ele>
      </trkpt>
      <trkpt lat="43.51916" lon="-71.30757">
        <ele>522.39</ele>
      </trkpt>
      <trkpt lat="43.51927" lon="-71.30758">
        <ele>521.02</ele>
      </trkpt>
      <trkpt lat="43.51946" lon="-71.30773">
        <ele>516.35</ele>
      </trkpt>
      <trkpt lat="43.51963" lon="-71.30783">
        <ele>512.43</ele>
      </trkpt>
      <trkpt lat="43.51966" lon="-71.30786">
        <ele>511.49</ele>
      </trkpt>
      <trkpt lat="43.51968" lon="-71.30794">
        <ele>510.16</ele>
      </trkpt>
      <trkpt lat="43.51966" lon="-71.3082">
        <ele>506.22</ele>
      </trkpt>
      <trkpt lat="43.51967" lon="-71.30854">
        <ele>499.66</ele>
      </trkpt>
      <trkpt lat="43.51969" lon="-71.30883">
        <ele>493.97</ele>
      </trkpt>
      <trkpt lat="43.51977" lon="-71.30895">
        <ele>488.81</ele>
      </trkpt>
      <trkpt lat="43.51988" lon="-71.30895">
        <ele>486.27</ele>
      </trkpt>
      <trkpt lat="43.52002" lon="-71.3088">
        <ele>485.74</ele>
      </trkpt>
      <trkpt lat="43.52012" lon="-71.30877">
        <ele>484.99</ele>
      </trkpt>
      <trkpt lat="43.52015" lon="-71.30878">
        <ele>484.56</ele>
      </trkpt>
      <trkpt lat="43.52016" lon="-71.30887">
        <ele>482.9</ele>
      </trkpt>
      <trkpt lat="43.52015" lon="-71.30896">
        <ele>481.7</ele>
      </trkpt>
      <trkpt lat="43.52006" lon="-71.30914">
        <ele>480.28</ele>
      </trkpt>
      <trkpt lat="43.51999" lon="-71.30923">
        <ele>479.85</ele>
      </trkpt>
      <trkpt lat="43.51998" lon="-71.3094">
        <ele>477.29</ele>
      </trkpt>
      <trkpt lat="43.51992" lon="-71.30967">
        <ele>472.99</ele>
      </trkpt>
      <trkpt lat="43.51984" lon="-71.30973">
        <ele>473.31</ele>
      </trkpt>
      <trkpt lat="43.51982" lon="-71.30985">
        <ele>471.54</ele>
      </trkpt>
      <trkpt lat="43.51988" lon="-71.3099">
        <ele>469.73</ele>
      </trkpt>
      <trkpt lat="43.51994" lon="-71.30993">
        <ele>467.89</ele>
      </trkpt>
      <trkpt lat="43.52008" lon="-71.30999">
        <ele>464.47</ele>
      </trkpt>
      <trkpt lat="43.52011" lon="-71.31006">
        <ele>462.33</ele>
      </trkpt>
      <trkpt lat="43.52011" lon="-71.31015">
        <ele>460.38</ele>
      </trkpt>
      <trkpt lat="43.52009" lon="-71.31025">
        <ele>458.66</ele>
      </trkpt>
      <trkpt lat="43.52003" lon="-71.31039">
        <ele>457.4</ele>
      </trkpt>
      <trkpt lat="43.51991" lon="-71.31048">
        <ele>457.6</ele>
      </trkpt>
      <trkpt lat="43.52005" lon="-71.31057">
        <ele>454.3</ele>
      </trkpt>
      <trkpt lat="43.52013" lon="-71.31064">
        <ele>452.32</ele>
      </trkpt>
      <trkpt lat="43.52019" lon="-71.31069">
        <ele>450.04</ele>
      </trkpt>
      <trkpt lat="43.52003" lon="-71.31084">
        <ele>450.21</ele>
      </trkpt>
      <trkpt lat="43.52019" lon="-71.31099">
        <ele>443.51</ele>
      </trkpt>
      <trkpt lat="43.52015" lon="-71.31108">
        <ele>442.43</ele>
      </trkpt>
      <trkpt lat="43.52046" lon="-71.31124">
        <ele>431.28</ele>
      </trkpt>
      <trkpt lat="43.52062" lon="-71.31115">
        <ele>429.77</ele>
      </trkpt>
      <trkpt lat="43.52069" lon="-71.31121">
        <ele>427.03</ele>
      </trkpt>
      <trkpt lat="43.52062" lon="-71.31131">
        <ele>427.05</ele>
      </trkpt>
      <trkpt lat="43.52054" lon="-71.31151">
        <ele>425.03</ele>
      </trkpt>
      <trkpt lat="43.52047" lon="-71.3116">
        <ele>425.31</ele>
      </trkpt>
      <trkpt lat="43.52032" lon="-71.312">
        <ele>422.16</ele>
      </trkpt>
      <trkpt lat="43.52047" lon="-71.31202">
        <ele>420.03</ele>
      </trkpt>
      <trkpt lat="43.5205" lon="-71.3121">
        <ele>418.11</ele>
      </trkpt>
      <trkpt lat="43.52049" lon="-71.31228">
        <ele>415.35</ele>
      </trkpt>
      <trkpt lat="43.52063" lon="-71.3124">
        <ele>411.29</ele>
      </trkpt>
      <trkpt lat="43.52093" lon="-71.31239">
        <ele>406.1</ele>
      </trkpt>
      <trkpt lat="43.5211" lon="-71.31252">
        <ele>400.9</ele>
      </trkpt>
      <trkpt lat="43.52114" lon="-71.31258">
        <ele>399.51</ele>
      </trkpt>
      <trkpt lat="43.52116" lon="-71.31267">
        <ele>398.11</ele>
      </trkpt>
      <trkpt lat="43.52117" lon="-71.31281">
        <ele>396.38</ele>
      </trkpt>
      <trkpt lat="43.5212" lon="-71.31288">
        <ele>394.98</ele>
      </trkpt>
      <trkpt lat="43.52159" lon="-71.3132">
        <ele>385.71</ele>
      </trkpt>
      <trkpt lat="43.52178" lon="-71.31342">
        <ele>381.84</ele>
      </trkpt>
      <trkpt lat="43.52204" lon="-71.31396">
        <ele>372.18</ele>
      </trkpt>
      <trkpt lat="43.52233" lon="-71.31442">
        <ele>363.1</ele>
      </trkpt>
      <trkpt lat="43.52238" lon="-71.31457">
        <ele>360.83</ele>
      </trkpt>
      <trkpt lat="43.52242" lon="-71.31464">
        <ele>359.89</ele>
      </trkpt>
      <trkpt lat="43.52258" lon="-71.31477">
        <ele>357.62</ele>
      </trkpt>
      <trkpt lat="43.52267" lon="-71.31491">
        <ele>355.14</ele>
      </trkpt>
      <trkpt lat="43.5227" lon="-71.315">
        <ele>353.84</ele>
      </trkpt>
      <trkpt lat="43.52273" lon="-71.31529">
        <ele>352.52</ele>
      </trkpt>
      <trkpt lat="43.5227" lon="-71.3157">
        <ele>352.84</ele>
      </trkpt>
      <trkpt lat="43.52269" lon="-71.31583">
        <ele>352.9</ele>
      </trkpt>
      <trkpt lat="43.52271" lon="-71.31593">
        <ele>351.73</ele>
      </trkpt>
      <trkpt lat="43.52278" lon="-71.31616">
        <ele>350.45</ele>
      </trkpt>
      <trkpt lat="43.52289" lon="-71.31655">
        <ele>347.79</ele>
      </trkpt>
      <trkpt lat="43.52294" lon="-71.31669">
        <ele>346.43</ele>
      </trkpt>
      <trkpt lat="43.52314" lon="-71.31708">
        <ele>341.62</ele>
      </trkpt>
      <trkpt lat="43.52319" lon="-71.31715">
        <ele>340.9</ele>
      </trkpt>
      <trkpt lat="43.52332" lon="-71.31721">
        <ele>340.02</ele>
      </trkpt>
      <trkpt lat="43.52371" lon="-71.31744">
        <ele>336.6</ele>
      </trkpt>
      <trkpt lat="43.52386" lon="-71.31759">
        <ele>335.03</ele>
      </trkpt>
      <trkpt lat="43.52405" lon="-71.3178">
        <ele>333.2</ele>
      </trkpt>
      <trkpt lat="43.52425" lon="-71.31794">
        <ele>331.32</ele>
      </trkpt>
      <trkpt lat="43.5244" lon="-71.31804">
        <ele>330.08</ele>
      </trkpt>
      <trkpt lat="43.52447" lon="-71.31806">
        <ele>329.69</ele>
      </trkpt>
      <trkpt lat="43.52461" lon="-71.31802">
        <ele>328.51</ele>
      </trkpt>
      <trkpt lat="43.52471" lon="-71.31799">
        <ele>328.09</ele>
      </trkpt>
      <trkpt lat="43.52493" lon="-71.31794">
        <ele>326.0</ele>
      </trkpt>
      <trkpt lat="43.5256" lon="-71.31773">
        <ele>316.52</ele>
      </trkpt>
      <trkpt lat="43.52619" lon="-71.31751">
        <ele>310.15</ele>
      </trkpt>
      <trkpt lat="43.52638" lon="-71.31747">
        <ele>308.1</ele>
      </trkpt>
      <trkpt lat="43.52658" lon="-71.31742">
        <ele>305.94</ele>
      </trkpt>
      <trkpt lat="43.5268" lon="-71.31734">
        <ele>303.56</ele>
      </trkpt>
      <trkpt lat="43.52686" lon="-71.31731">
        <ele>302.91</ele>
      </trkpt>
      <trkpt lat="43.52686" lon="-71.31731">
        <ele>302.91</ele>
      </trkpt>
    </trkseg>
  </trk>
</gpx>
