<?xml version="1.0" encoding="UTF-8"?>
<gpx version="1.1" creator="Belknap Tracker" xmlns="http://www.topografix.com/GPX/1/1">
  <trk>
    <name><![CDATA[Belknap track 2026-06-13T16:06:38.494Z]]></name>
    <trkseg>
      <trkpt lat="43.54342090431601" lon="-71.40107335522771"><time>2026-06-13T16:06:39.996Z</time></trkpt>
      <trkpt lat="43.543194215744734" lon="-71.39068708755076"><time>2026-06-13T16:28:27.000Z</time></trkpt>
      <trkpt lat="43.543112869374454" lon="-71.3906092196703"><time>2026-06-13T16:28:38.000Z</time></trkpt>
      <trkpt lat="43.54306295514107" lon="-71.39060905203223"><time>2026-06-13T16:28:47.000Z</time></trkpt>
      <trkpt lat="43.5430120350793" lon="-71.39060477726161"><time>2026-06-13T16:28:54.000Z</time></trkpt>
      <trkpt lat="43.5429129190743" lon="-71.39063034206629"><time>2026-06-13T16:29:06.000Z</time></trkpt>
      <trkpt lat="43.54286262765527" lon="-71.39063931070268"><time>2026-06-13T16:29:11.000Z</time></trkpt>
      <trkpt lat="43.54275969788432" lon="-71.3906380534172"><time>2026-06-13T16:29:21.000Z</time></trkpt>
      <trkpt lat="43.5427073109895" lon="-71.39063226990402"><time>2026-06-13T16:29:26.000Z</time></trkpt>
      <trkpt lat="43.542659492231905" lon="-71.39061986468732"><time>2026-06-13T16:29:33.000Z</time></trkpt>
      <trkpt lat="43.54132861364633" lon="-71.3882222212851"><time>2026-06-13T16:43:59.000Z</time></trkpt>
      <trkpt lat="43.54130086954683" lon="-71.38827301561832"><time>2026-06-13T16:45:18.000Z</time></trkpt>
      <trkpt lat="43.54130443185568" lon="-71.38819699175656"><time>2026-06-13T16:45:33.000Z</time></trkpt>
      <trkpt lat="43.54129600804299" lon="-71.38812775723636"><time>2026-06-13T16:45:38.000Z</time></trkpt>
      <trkpt lat="43.54134764056653" lon="-71.38804293237627"><time>2026-06-13T16:45:53.000Z</time></trkpt>
      <trkpt lat="43.54139277711511" lon="-71.38807411305606"><time>2026-06-13T16:45:59.000Z</time></trkpt>
      <trkpt lat="43.54142529889941" lon="-71.38811811804771"><time>2026-06-13T16:46:05.000Z</time></trkpt>
      <trkpt lat="43.54139273520559" lon="-71.42515355721116"><time>2026-06-13T18:22:33.000Z</time></trkpt>
      <trkpt lat="43.540702695026994" lon="-71.42680286429822"><time>2026-06-13T18:22:39.000Z</time></trkpt>
    </trkseg>
  </trk>
</gpx>
