<?xml version="1.0"?>
<gpx xmlns="http://www.topografix.com/GPX/1/1" xmlns:xsi="http://www.w3.org/2001/XMLSchema-instance" version="1.1" creator="AllTrails.com" xsi:schemaLocation="http://www.topografix.com/GPX/1/1 http://www.topografix.com/GPX/1/1/gpx.xsd">
  <metadata>
    <name><![CDATA[Piper, Belknap, and Gunstock Loop]]></name>
    <desc><![CDATA[]]></desc>
    <link href="http://www.alltrails.com">
      <text>AllTrails, LLC</text>
    </link>
    <bounds minlat="43.50256" minlon="-71.39033" maxlat="43.52635" maxlon="-71.36806"/>
  </metadata>
  <wpt lat="43.50424" lon="-71.37729">
    <name><![CDATA[Piper Mountain Summit]]></name>
    <desc><![CDATA[Elevation: 2044 ft. (623 m)]]></desc>
  </wpt>
  <wpt lat="43.51786" lon="-71.36924">
    <name><![CDATA[Belknap Mountain Summit]]></name>
    <desc><![CDATA[Elevation:  2382 ft. (726 m)]]></desc>
  </wpt>
  <wpt lat="43.52564" lon="-71.3784">
    <name><![CDATA[Gunstock Mountain Summit]]></name>
    <desc><![CDATA[Elevation:  2240 ft. (683 m)]]></desc>
  </wpt>
  <trk>
    <name><![CDATA[Piper, Belknap, and Gunstock Loop]]></name>
    <src>AllTrails</src>
    <trkseg>
      <trkpt lat="43.51759" lon="-71.39033">
        <ele>313.97</ele>
      </trkpt>
      <trkpt lat="43.51736" lon="-71.38988">
        <ele>313.78</ele>
      </trkpt>
      <trkpt lat="43.51727" lon="-71.38975">
        <ele>313.52</ele>
      </trkpt>
      <trkpt lat="43.51718" lon="-71.38959">
        <ele>313.54</ele>
      </trkpt>
      <trkpt lat="43.51709" lon="-71.38948">
        <ele>313.35</ele>
      </trkpt>
      <trkpt lat="43.51691" lon="-71.38931">
        <ele>312.28</ele>
      </trkpt>
      <trkpt lat="43.51678" lon="-71.3892">
        <ele>311.72</ele>
      </trkpt>
      <trkpt lat="43.51657" lon="-71.38944">
        <ele>312.04</ele>
      </trkpt>
      <trkpt lat="43.51642" lon="-71.3894">
        <ele>313.32</ele>
      </trkpt>
      <trkpt lat="43.51642" lon="-71.38939">
        <ele>313.39</ele>
      </trkpt>
      <trkpt lat="43.5163" lon="-71.38937">
        <ele>314.76</ele>
      </trkpt>
      <trkpt lat="43.51612" lon="-71.38926">
        <ele>316.99</ele>
      </trkpt>
      <trkpt lat="43.51592" lon="-71.38924">
        <ele>316.19</ele>
      </trkpt>
      <trkpt lat="43.51583" lon="-71.38922">
        <ele>316.07</ele>
      </trkpt>
      <trkpt lat="43.51578" lon="-71.38906">
        <ele>317.73</ele>
      </trkpt>
      <trkpt lat="43.51572" lon="-71.38894">
        <ele>319.8</ele>
      </trkpt>
      <trkpt lat="43.51565" lon="-71.38882">
        <ele>321.74</ele>
      </trkpt>
      <trkpt lat="43.51557" lon="-71.38872">
        <ele>322.84</ele>
      </trkpt>
      <trkpt lat="43.51489" lon="-71.38845">
        <ele>340.38</ele>
      </trkpt>
      <trkpt lat="43.51438" lon="-71.3885">
        <ele>354.09</ele>
      </trkpt>
      <trkpt lat="43.51394" lon="-71.38856">
        <ele>365.65</ele>
      </trkpt>
      <trkpt lat="43.51373" lon="-71.38847">
        <ele>371.96</ele>
      </trkpt>
      <trkpt lat="43.51342" lon="-71.38838">
        <ele>376.59</ele>
      </trkpt>
      <trkpt lat="43.51314" lon="-71.38834">
        <ele>380.08</ele>
      </trkpt>
      <trkpt lat="43.51293" lon="-71.38846">
        <ele>381.36</ele>
      </trkpt>
      <trkpt lat="43.51277" lon="-71.38849">
        <ele>382.39</ele>
      </trkpt>
      <trkpt lat="43.51247" lon="-71.38833">
        <ele>387.36</ele>
      </trkpt>
      <trkpt lat="43.51217" lon="-71.38811">
        <ele>392.98</ele>
      </trkpt>
      <trkpt lat="43.51199" lon="-71.38787">
        <ele>398.02</ele>
      </trkpt>
      <trkpt lat="43.51185" lon="-71.38758">
        <ele>403.16</ele>
      </trkpt>
      <trkpt lat="43.51172" lon="-71.38745">
        <ele>406.39</ele>
      </trkpt>
      <trkpt lat="43.51159" lon="-71.38723">
        <ele>410.74</ele>
      </trkpt>
      <trkpt lat="43.51138" lon="-71.38715">
        <ele>415.17</ele>
      </trkpt>
      <trkpt lat="43.51116" lon="-71.38704">
        <ele>419.91</ele>
      </trkpt>
      <trkpt lat="43.51084" lon="-71.38678">
        <ele>427.7</ele>
      </trkpt>
      <trkpt lat="43.51049" lon="-71.38654">
        <ele>435.34</ele>
      </trkpt>
      <trkpt lat="43.51032" lon="-71.3863">
        <ele>440.5</ele>
      </trkpt>
      <trkpt lat="43.51013" lon="-71.3861">
        <ele>445.72</ele>
      </trkpt>
      <trkpt lat="43.51006" lon="-71.38605">
        <ele>446.89</ele>
      </trkpt>
      <trkpt lat="43.50991" lon="-71.38599">
        <ele>448.61</ele>
      </trkpt>
      <trkpt lat="43.50983" lon="-71.38594">
        <ele>449.7</ele>
      </trkpt>
      <trkpt lat="43.50975" lon="-71.38585">
        <ele>451.64</ele>
      </trkpt>
      <trkpt lat="43.50965" lon="-71.3857">
        <ele>454.88</ele>
      </trkpt>
      <trkpt lat="43.5096" lon="-71.38559">
        <ele>457.58</ele>
      </trkpt>
      <trkpt lat="43.50959" lon="-71.38549">
        <ele>460.55</ele>
      </trkpt>
      <trkpt lat="43.50961" lon="-71.38538">
        <ele>463.71</ele>
      </trkpt>
      <trkpt lat="43.50966" lon="-71.3853">
        <ele>466.03</ele>
      </trkpt>
      <trkpt lat="43.5098" lon="-71.38508">
        <ele>470.41</ele>
      </trkpt>
      <trkpt lat="43.51002" lon="-71.38474">
        <ele>475.4</ele>
      </trkpt>
      <trkpt lat="43.51014" lon="-71.38456">
        <ele>478.36</ele>
      </trkpt>
      <trkpt lat="43.51019" lon="-71.38436">
        <ele>481.72</ele>
      </trkpt>
      <trkpt lat="43.51027" lon="-71.38414">
        <ele>484.4</ele>
      </trkpt>
      <trkpt lat="43.51029" lon="-71.38401">
        <ele>485.52</ele>
      </trkpt>
      <trkpt lat="43.51022" lon="-71.38398">
        <ele>487.28</ele>
      </trkpt>
      <trkpt lat="43.50959" lon="-71.38393">
        <ele>499.11</ele>
      </trkpt>
      <trkpt lat="43.50955" lon="-71.38378">
        <ele>503.53</ele>
      </trkpt>
      <trkpt lat="43.50955" lon="-71.3836">
        <ele>509.22</ele>
      </trkpt>
      <trkpt lat="43.50955" lon="-71.38323">
        <ele>519.21</ele>
      </trkpt>
      <trkpt lat="43.50953" lon="-71.38308">
        <ele>524.3</ele>
      </trkpt>
      <trkpt lat="43.50946" lon="-71.38297">
        <ele>527.68</ele>
      </trkpt>
      <trkpt lat="43.50938" lon="-71.38292">
        <ele>529.16</ele>
      </trkpt>
      <trkpt lat="43.50929" lon="-71.38288">
        <ele>530.49</ele>
      </trkpt>
      <trkpt lat="43.50891" lon="-71.3829">
        <ele>532.61</ele>
      </trkpt>
      <trkpt lat="43.50887" lon="-71.38284">
        <ele>533.86</ele>
      </trkpt>
      <trkpt lat="43.50888" lon="-71.38255">
        <ele>539.02</ele>
      </trkpt>
      <trkpt lat="43.50886" lon="-71.38247">
        <ele>540.96</ele>
      </trkpt>
      <trkpt lat="43.50876" lon="-71.38236">
        <ele>544.62</ele>
      </trkpt>
      <trkpt lat="43.5087" lon="-71.38223">
        <ele>548.88</ele>
      </trkpt>
      <trkpt lat="43.5085" lon="-71.38216">
        <ele>551.87</ele>
      </trkpt>
      <trkpt lat="43.50823" lon="-71.38208">
        <ele>555.13</ele>
      </trkpt>
      <trkpt lat="43.50808" lon="-71.38173">
        <ele>563.55</ele>
      </trkpt>
      <trkpt lat="43.50801" lon="-71.38167">
        <ele>564.95</ele>
      </trkpt>
      <trkpt lat="43.5078" lon="-71.38157">
        <ele>566.33</ele>
      </trkpt>
      <trkpt lat="43.50774" lon="-71.38151">
        <ele>567.38</ele>
      </trkpt>
      <trkpt lat="43.50766" lon="-71.38129">
        <ele>571.86</ele>
      </trkpt>
      <trkpt lat="43.5077" lon="-71.38069">
        <ele>588.01</ele>
      </trkpt>
      <trkpt lat="43.50775" lon="-71.3805">
        <ele>589.9</ele>
      </trkpt>
      <trkpt lat="43.50766" lon="-71.38018">
        <ele>594.33</ele>
      </trkpt>
      <trkpt lat="43.50754" lon="-71.38005">
        <ele>596.46</ele>
      </trkpt>
      <trkpt lat="43.50744" lon="-71.37997">
        <ele>598.09</ele>
      </trkpt>
      <trkpt lat="43.5074" lon="-71.37991">
        <ele>598.97</ele>
      </trkpt>
      <trkpt lat="43.50734" lon="-71.37971">
        <ele>602.23</ele>
      </trkpt>
      <trkpt lat="43.5073" lon="-71.37961">
        <ele>604.42</ele>
      </trkpt>
      <trkpt lat="43.50723" lon="-71.37954">
        <ele>605.94</ele>
      </trkpt>
      <trkpt lat="43.50705" lon="-71.37943">
        <ele>608.43</ele>
      </trkpt>
      <trkpt lat="43.50687" lon="-71.37922">
        <ele>610.62</ele>
      </trkpt>
      <trkpt lat="43.50661" lon="-71.37882">
        <ele>614.88</ele>
      </trkpt>
      <trkpt lat="43.50657" lon="-71.37868">
        <ele>615.92</ele>
      </trkpt>
      <trkpt lat="43.50658" lon="-71.37843">
        <ele>615.11</ele>
      </trkpt>
      <trkpt lat="43.50642" lon="-71.37838">
        <ele>613.5</ele>
      </trkpt>
      <trkpt lat="43.50621" lon="-71.37839">
        <ele>613.0</ele>
      </trkpt>
      <trkpt lat="43.50604" lon="-71.37835">
        <ele>613.0</ele>
      </trkpt>
      <trkpt lat="43.50555" lon="-71.37813">
        <ele>615.8</ele>
      </trkpt>
      <trkpt lat="43.5053" lon="-71.37797">
        <ele>615.92</ele>
      </trkpt>
      <trkpt lat="43.50513" lon="-71.37789">
        <ele>616.0</ele>
      </trkpt>
      <trkpt lat="43.50505" lon="-71.37784">
        <ele>616.0</ele>
      </trkpt>
      <trkpt lat="43.50492" lon="-71.3777">
        <ele>616.84</ele>
      </trkpt>
      <trkpt lat="43.50482" lon="-71.37765">
        <ele>617.36</ele>
      </trkpt>
      <trkpt lat="43.50454" lon="-71.37763">
        <ele>619.39</ele>
      </trkpt>
      <trkpt lat="43.50404" lon="-71.37779">
        <ele>621.32</ele>
      </trkpt>
      <trkpt lat="43.50393" lon="-71.3778">
        <ele>621.89</ele>
      </trkpt>
      <trkpt lat="43.50379" lon="-71.37777">
        <ele>622.0</ele>
      </trkpt>
      <trkpt lat="43.50372" lon="-71.37773">
        <ele>622.0</ele>
      </trkpt>
      <trkpt lat="43.50366" lon="-71.37767">
        <ele>621.36</ele>
      </trkpt>
      <trkpt lat="43.50349" lon="-71.37735">
        <ele>616.88</ele>
      </trkpt>
      <trkpt lat="43.50338" lon="-71.37723">
        <ele>617.0</ele>
      </trkpt>
      <trkpt lat="43.50326" lon="-71.37715">
        <ele>616.22</ele>
      </trkpt>
      <trkpt lat="43.503" lon="-71.3771">
        <ele>614.87</ele>
      </trkpt>
      <trkpt lat="43.50273" lon="-71.37719">
        <ele>615.66</ele>
      </trkpt>
      <trkpt lat="43.50256" lon="-71.37716">
        <ele>614.32</ele>
      </trkpt>
      <trkpt lat="43.50273" lon="-71.37719">
        <ele>615.66</ele>
      </trkpt>
      <trkpt lat="43.503" lon="-71.3771">
        <ele>614.87</ele>
      </trkpt>
      <trkpt lat="43.50326" lon="-71.37715">
        <ele>616.22</ele>
      </trkpt>
      <trkpt lat="43.50338" lon="-71.37723">
        <ele>617.0</ele>
      </trkpt>
      <trkpt lat="43.50349" lon="-71.37735">
        <ele>616.88</ele>
      </trkpt>
      <trkpt lat="43.50366" lon="-71.37767">
        <ele>621.36</ele>
      </trkpt>
      <trkpt lat="43.50372" lon="-71.37773">
        <ele>622.0</ele>
      </trkpt>
      <trkpt lat="43.50379" lon="-71.37777">
        <ele>622.0</ele>
      </trkpt>
      <trkpt lat="43.50393" lon="-71.3778">
        <ele>621.89</ele>
      </trkpt>
      <trkpt lat="43.50404" lon="-71.37779">
        <ele>621.32</ele>
      </trkpt>
      <trkpt lat="43.50454" lon="-71.37763">
        <ele>619.39</ele>
      </trkpt>
      <trkpt lat="43.50482" lon="-71.37765">
        <ele>617.36</ele>
      </trkpt>
      <trkpt lat="43.50492" lon="-71.3777">
        <ele>616.84</ele>
      </trkpt>
      <trkpt lat="43.50505" lon="-71.37784">
        <ele>616.0</ele>
      </trkpt>
      <trkpt lat="43.50513" lon="-71.37789">
        <ele>616.0</ele>
      </trkpt>
      <trkpt lat="43.5053" lon="-71.37797">
        <ele>615.92</ele>
      </trkpt>
      <trkpt lat="43.50555" lon="-71.37813">
        <ele>615.8</ele>
      </trkpt>
      <trkpt lat="43.50604" lon="-71.37835">
        <ele>613.0</ele>
      </trkpt>
      <trkpt lat="43.50621" lon="-71.37839">
        <ele>613.0</ele>
      </trkpt>
      <trkpt lat="43.50642" lon="-71.37838">
        <ele>613.5</ele>
      </trkpt>
      <trkpt lat="43.50658" lon="-71.37843">
        <ele>615.11</ele>
      </trkpt>
      <trkpt lat="43.50673" lon="-71.37846">
        <ele>615.68</ele>
      </trkpt>
      <trkpt lat="43.50691" lon="-71.37854">
        <ele>614.09</ele>
      </trkpt>
      <trkpt lat="43.50712" lon="-71.37869">
        <ele>613.87</ele>
      </trkpt>
      <trkpt lat="43.50727" lon="-71.37862">
        <ele>613.0</ele>
      </trkpt>
      <trkpt lat="43.50734" lon="-71.37851">
        <ele>612.91</ele>
      </trkpt>
      <trkpt lat="43.50738" lon="-71.37841">
        <ele>611.83</ele>
      </trkpt>
      <trkpt lat="43.50745" lon="-71.37829">
        <ele>610.32</ele>
      </trkpt>
      <trkpt lat="43.50754" lon="-71.37823">
        <ele>608.77</ele>
      </trkpt>
      <trkpt lat="43.5076" lon="-71.37819">
        <ele>607.82</ele>
      </trkpt>
      <trkpt lat="43.50767" lon="-71.37809">
        <ele>604.91</ele>
      </trkpt>
      <trkpt lat="43.50773" lon="-71.37804">
        <ele>603.58</ele>
      </trkpt>
      <trkpt lat="43.50778" lon="-71.37801">
        <ele>602.5</ele>
      </trkpt>
      <trkpt lat="43.50789" lon="-71.37801">
        <ele>601.31</ele>
      </trkpt>
      <trkpt lat="43.50801" lon="-71.37802">
        <ele>600.03</ele>
      </trkpt>
      <trkpt lat="43.50814" lon="-71.37798">
        <ele>596.54</ele>
      </trkpt>
      <trkpt lat="43.50824" lon="-71.37791">
        <ele>593.86</ele>
      </trkpt>
      <trkpt lat="43.5083" lon="-71.37782">
        <ele>590.44</ele>
      </trkpt>
      <trkpt lat="43.50837" lon="-71.37755">
        <ele>583.08</ele>
      </trkpt>
      <trkpt lat="43.50842" lon="-71.37749">
        <ele>581.68</ele>
      </trkpt>
      <trkpt lat="43.50847" lon="-71.37747">
        <ele>581.03</ele>
      </trkpt>
      <trkpt lat="43.50855" lon="-71.37748">
        <ele>581.09</ele>
      </trkpt>
      <trkpt lat="43.50862" lon="-71.37752">
        <ele>581.43</ele>
      </trkpt>
      <trkpt lat="43.50869" lon="-71.37755">
        <ele>582.08</ele>
      </trkpt>
      <trkpt lat="43.50878" lon="-71.37749">
        <ele>580.76</ele>
      </trkpt>
      <trkpt lat="43.50935" lon="-71.37732">
        <ele>577.02</ele>
      </trkpt>
      <trkpt lat="43.50968" lon="-71.37696">
        <ele>568.99</ele>
      </trkpt>
      <trkpt lat="43.50999" lon="-71.37659">
        <ele>564.13</ele>
      </trkpt>
      <trkpt lat="43.51017" lon="-71.37637">
        <ele>563.8</ele>
      </trkpt>
      <trkpt lat="43.51043" lon="-71.37615">
        <ele>562.56</ele>
      </trkpt>
      <trkpt lat="43.51054" lon="-71.37597">
        <ele>561.26</ele>
      </trkpt>
      <trkpt lat="43.51058" lon="-71.37592">
        <ele>560.69</ele>
      </trkpt>
      <trkpt lat="43.51066" lon="-71.37588">
        <ele>559.87</ele>
      </trkpt>
      <trkpt lat="43.51074" lon="-71.37588">
        <ele>559.01</ele>
      </trkpt>
      <trkpt lat="43.51111" lon="-71.37587">
        <ele>557.61</ele>
      </trkpt>
      <trkpt lat="43.5113" lon="-71.37582">
        <ele>557.1</ele>
      </trkpt>
      <trkpt lat="43.51151" lon="-71.37567">
        <ele>555.69</ele>
      </trkpt>
      <trkpt lat="43.51167" lon="-71.37558">
        <ele>553.99</ele>
      </trkpt>
      <trkpt lat="43.51173" lon="-71.37556">
        <ele>553.97</ele>
      </trkpt>
      <trkpt lat="43.51181" lon="-71.37555">
        <ele>554.0</ele>
      </trkpt>
      <trkpt lat="43.51195" lon="-71.37562">
        <ele>552.24</ele>
      </trkpt>
      <trkpt lat="43.51217" lon="-71.37576">
        <ele>548.7</ele>
      </trkpt>
      <trkpt lat="43.5124" lon="-71.3757">
        <ele>550.28</ele>
      </trkpt>
      <trkpt lat="43.5126" lon="-71.37565">
        <ele>553.92</ele>
      </trkpt>
      <trkpt lat="43.51292" lon="-71.3755">
        <ele>561.61</ele>
      </trkpt>
      <trkpt lat="43.51318" lon="-71.37534">
        <ele>564.98</ele>
      </trkpt>
      <trkpt lat="43.51318" lon="-71.37527">
        <ele>567.22</ele>
      </trkpt>
      <trkpt lat="43.5131" lon="-71.3752">
        <ele>569.52</ele>
      </trkpt>
      <trkpt lat="43.51314" lon="-71.37513">
        <ele>571.24</ele>
      </trkpt>
      <trkpt lat="43.51312" lon="-71.37503">
        <ele>574.33</ele>
      </trkpt>
      <trkpt lat="43.51306" lon="-71.37496">
        <ele>577.25</ele>
      </trkpt>
      <trkpt lat="43.51297" lon="-71.37495">
        <ele>577.62</ele>
      </trkpt>
      <trkpt lat="43.51283" lon="-71.37497">
        <ele>576.97</ele>
      </trkpt>
      <trkpt lat="43.5127" lon="-71.37491">
        <ele>578.92</ele>
      </trkpt>
      <trkpt lat="43.51261" lon="-71.37485">
        <ele>579.93</ele>
      </trkpt>
      <trkpt lat="43.51255" lon="-71.37478">
        <ele>581.75</ele>
      </trkpt>
      <trkpt lat="43.51248" lon="-71.37473">
        <ele>582.81</ele>
      </trkpt>
      <trkpt lat="43.51234" lon="-71.3747">
        <ele>582.75</ele>
      </trkpt>
      <trkpt lat="43.51216" lon="-71.37462">
        <ele>584.21</ele>
      </trkpt>
      <trkpt lat="43.51203" lon="-71.3745">
        <ele>586.35</ele>
      </trkpt>
      <trkpt lat="43.51185" lon="-71.37439">
        <ele>586.57</ele>
      </trkpt>
      <trkpt lat="43.51174" lon="-71.37432">
        <ele>586.14</ele>
      </trkpt>
      <trkpt lat="43.51167" lon="-71.37426">
        <ele>586.03</ele>
      </trkpt>
      <trkpt lat="43.51172" lon="-71.37418">
        <ele>587.07</ele>
      </trkpt>
      <trkpt lat="43.51177" lon="-71.37415">
        <ele>588.14</ele>
      </trkpt>
      <trkpt lat="43.5119" lon="-71.37412">
        <ele>590.02</ele>
      </trkpt>
      <trkpt lat="43.51207" lon="-71.3741">
        <ele>593.08</ele>
      </trkpt>
      <trkpt lat="43.51218" lon="-71.37404">
        <ele>595.28</ele>
      </trkpt>
      <trkpt lat="43.51225" lon="-71.37388">
        <ele>598.4</ele>
      </trkpt>
      <trkpt lat="43.51229" lon="-71.37373">
        <ele>601.16</ele>
      </trkpt>
      <trkpt lat="43.51222" lon="-71.37359">
        <ele>601.95</ele>
      </trkpt>
      <trkpt lat="43.51217" lon="-71.37336">
        <ele>599.91</ele>
      </trkpt>
      <trkpt lat="43.51224" lon="-71.37323">
        <ele>601.39</ele>
      </trkpt>
      <trkpt lat="43.51232" lon="-71.37313">
        <ele>603.98</ele>
      </trkpt>
      <trkpt lat="43.51248" lon="-71.37311">
        <ele>609.35</ele>
      </trkpt>
      <trkpt lat="43.51261" lon="-71.37307">
        <ele>612.38</ele>
      </trkpt>
      <trkpt lat="43.51282" lon="-71.37313">
        <ele>615.65</ele>
      </trkpt>
      <trkpt lat="43.51296" lon="-71.37309">
        <ele>616.99</ele>
      </trkpt>
      <trkpt lat="43.51347" lon="-71.37283">
        <ele>623.44</ele>
      </trkpt>
      <trkpt lat="43.51368" lon="-71.37253">
        <ele>626.68</ele>
      </trkpt>
      <trkpt lat="43.51372" lon="-71.37234">
        <ele>630.46</ele>
      </trkpt>
      <trkpt lat="43.51372" lon="-71.37199">
        <ele>637.6</ele>
      </trkpt>
      <trkpt lat="43.51377" lon="-71.37167">
        <ele>642.68</ele>
      </trkpt>
      <trkpt lat="43.51379" lon="-71.37157">
        <ele>644.09</ele>
      </trkpt>
      <trkpt lat="43.51391" lon="-71.37141">
        <ele>647.6</ele>
      </trkpt>
      <trkpt lat="43.51395" lon="-71.37131">
        <ele>649.7</ele>
      </trkpt>
      <trkpt lat="43.51398" lon="-71.37098">
        <ele>655.82</ele>
      </trkpt>
      <trkpt lat="43.51394" lon="-71.37081">
        <ele>658.94</ele>
      </trkpt>
      <trkpt lat="43.51394" lon="-71.37063">
        <ele>661.86</ele>
      </trkpt>
      <trkpt lat="43.51401" lon="-71.37043">
        <ele>666.22</ele>
      </trkpt>
      <trkpt lat="43.5141" lon="-71.37031">
        <ele>669.68</ele>
      </trkpt>
      <trkpt lat="43.51431" lon="-71.3702">
        <ele>674.3</ele>
      </trkpt>
      <trkpt lat="43.51437" lon="-71.37005">
        <ele>677.66</ele>
      </trkpt>
      <trkpt lat="43.51441" lon="-71.36985">
        <ele>680.25</ele>
      </trkpt>
      <trkpt lat="43.51452" lon="-71.36954">
        <ele>684.6</ele>
      </trkpt>
      <trkpt lat="43.51461" lon="-71.36924">
        <ele>689.78</ele>
      </trkpt>
      <trkpt lat="43.51474" lon="-71.36901">
        <ele>694.32</ele>
      </trkpt>
      <trkpt lat="43.51485" lon="-71.36888">
        <ele>697.42</ele>
      </trkpt>
      <trkpt lat="43.51492" lon="-71.36886">
        <ele>698.58</ele>
      </trkpt>
      <trkpt lat="43.5151" lon="-71.36889">
        <ele>702.15</ele>
      </trkpt>
      <trkpt lat="43.51524" lon="-71.36887">
        <ele>705.18</ele>
      </trkpt>
      <trkpt lat="43.51534" lon="-71.36873">
        <ele>707.58</ele>
      </trkpt>
      <trkpt lat="43.51544" lon="-71.36847">
        <ele>707.36</ele>
      </trkpt>
      <trkpt lat="43.51552" lon="-71.36826">
        <ele>707.13</ele>
      </trkpt>
      <trkpt lat="43.51557" lon="-71.36821">
        <ele>707.1</ele>
      </trkpt>
      <trkpt lat="43.51564" lon="-71.36815">
        <ele>707.02</ele>
      </trkpt>
      <trkpt lat="43.51586" lon="-71.3681">
        <ele>708.63</ele>
      </trkpt>
      <trkpt lat="43.51593" lon="-71.36806">
        <ele>709.0</ele>
      </trkpt>
      <trkpt lat="43.51615" lon="-71.36816">
        <ele>710.55</ele>
      </trkpt>
      <trkpt lat="43.51631" lon="-71.3683">
        <ele>712.79</ele>
      </trkpt>
      <trkpt lat="43.51644" lon="-71.36838">
        <ele>714.28</ele>
      </trkpt>
      <trkpt lat="43.51657" lon="-71.3684">
        <ele>714.99</ele>
      </trkpt>
      <trkpt lat="43.51691" lon="-71.36835">
        <ele>717.11</ele>
      </trkpt>
      <trkpt lat="43.51706" lon="-71.36835">
        <ele>717.36</ele>
      </trkpt>
      <trkpt lat="43.51726" lon="-71.3685">
        <ele>719.8</ele>
      </trkpt>
      <trkpt lat="43.51743" lon="-71.36868">
        <ele>721.74</ele>
      </trkpt>
      <trkpt lat="43.5175" lon="-71.36885">
        <ele>723.0</ele>
      </trkpt>
      <trkpt lat="43.5177" lon="-71.36911">
        <ele>724.49</ele>
      </trkpt>
      <trkpt lat="43.51791" lon="-71.36929">
        <ele>726.14</ele>
      </trkpt>
      <trkpt lat="43.51805" lon="-71.36918">
        <ele>726.0</ele>
      </trkpt>
      <trkpt lat="43.51812" lon="-71.36916">
        <ele>725.21</ele>
      </trkpt>
      <trkpt lat="43.51825" lon="-71.3692">
        <ele>724.26</ele>
      </trkpt>
      <trkpt lat="43.51841" lon="-71.3693">
        <ele>723.54</ele>
      </trkpt>
      <trkpt lat="43.51859" lon="-71.36934">
        <ele>722.9</ele>
      </trkpt>
      <trkpt lat="43.51873" lon="-71.36945">
        <ele>721.98</ele>
      </trkpt>
      <trkpt lat="43.51926" lon="-71.36977">
        <ele>715.98</ele>
      </trkpt>
      <trkpt lat="43.51937" lon="-71.36986">
        <ele>713.61</ele>
      </trkpt>
      <trkpt lat="43.51941" lon="-71.36991">
        <ele>712.72</ele>
      </trkpt>
      <trkpt lat="43.51947" lon="-71.37004">
        <ele>710.02</ele>
      </trkpt>
      <trkpt lat="43.51965" lon="-71.37053">
        <ele>701.84</ele>
      </trkpt>
      <trkpt lat="43.51969" lon="-71.37072">
        <ele>698.57</ele>
      </trkpt>
      <trkpt lat="43.51972" lon="-71.37092">
        <ele>695.09</ele>
      </trkpt>
      <trkpt lat="43.51976" lon="-71.37105">
        <ele>691.71</ele>
      </trkpt>
      <trkpt lat="43.51988" lon="-71.37117">
        <ele>688.47</ele>
      </trkpt>
      <trkpt lat="43.52007" lon="-71.3713">
        <ele>685.16</ele>
      </trkpt>
      <trkpt lat="43.52017" lon="-71.37135">
        <ele>683.0</ele>
      </trkpt>
      <trkpt lat="43.52039" lon="-71.3714">
        <ele>677.46</ele>
      </trkpt>
      <trkpt lat="43.52052" lon="-71.3714">
        <ele>674.03</ele>
      </trkpt>
      <trkpt lat="43.5208" lon="-71.3713">
        <ele>667.72</ele>
      </trkpt>
      <trkpt lat="43.52085" lon="-71.37127">
        <ele>666.64</ele>
      </trkpt>
      <trkpt lat="43.52095" lon="-71.37116">
        <ele>664.48</ele>
      </trkpt>
      <trkpt lat="43.52099" lon="-71.37113">
        <ele>663.62</ele>
      </trkpt>
      <trkpt lat="43.52106" lon="-71.37114">
        <ele>662.55</ele>
      </trkpt>
      <trkpt lat="43.52121" lon="-71.37122">
        <ele>659.93</ele>
      </trkpt>
      <trkpt lat="43.52142" lon="-71.37142">
        <ele>655.99</ele>
      </trkpt>
      <trkpt lat="43.52148" lon="-71.37149">
        <ele>654.14</ele>
      </trkpt>
      <trkpt lat="43.52168" lon="-71.37189">
        <ele>650.71</ele>
      </trkpt>
      <trkpt lat="43.52174" lon="-71.37205">
        <ele>649.39</ele>
      </trkpt>
      <trkpt lat="43.52176" lon="-71.37217">
        <ele>648.55</ele>
      </trkpt>
      <trkpt lat="43.52174" lon="-71.37251">
        <ele>647.39</ele>
      </trkpt>
      <trkpt lat="43.52178" lon="-71.37265">
        <ele>646.07</ele>
      </trkpt>
      <trkpt lat="43.52191" lon="-71.37283">
        <ele>643.37</ele>
      </trkpt>
      <trkpt lat="43.52194" lon="-71.37292">
        <ele>642.51</ele>
      </trkpt>
      <trkpt lat="43.52193" lon="-71.37304">
        <ele>641.32</ele>
      </trkpt>
      <trkpt lat="43.52189" lon="-71.37321">
        <ele>639.92</ele>
      </trkpt>
      <trkpt lat="43.5219" lon="-71.37331">
        <ele>638.73</ele>
      </trkpt>
      <trkpt lat="43.52193" lon="-71.37335">
        <ele>637.95</ele>
      </trkpt>
      <trkpt lat="43.5221" lon="-71.3734">
        <ele>635.6</ele>
      </trkpt>
      <trkpt lat="43.52216" lon="-71.37346">
        <ele>634.3</ele>
      </trkpt>
      <trkpt lat="43.52223" lon="-71.37362">
        <ele>631.82</ele>
      </trkpt>
      <trkpt lat="43.52229" lon="-71.3737">
        <ele>630.31</ele>
      </trkpt>
      <trkpt lat="43.5224" lon="-71.37383">
        <ele>627.38</ele>
      </trkpt>
      <trkpt lat="43.52245" lon="-71.37386">
        <ele>625.7</ele>
      </trkpt>
      <trkpt lat="43.52245" lon="-71.37386">
        <ele>625.7</ele>
      </trkpt>
      <trkpt lat="43.52268" lon="-71.37402">
        <ele>616.34</ele>
      </trkpt>
      <trkpt lat="43.52287" lon="-71.37427">
        <ele>610.89</ele>
      </trkpt>
      <trkpt lat="43.52295" lon="-71.37435">
        <ele>610.88</ele>
      </trkpt>
      <trkpt lat="43.5231" lon="-71.37444">
        <ele>611.0</ele>
      </trkpt>
      <trkpt lat="43.52331" lon="-71.37454">
        <ele>610.99</ele>
      </trkpt>
      <trkpt lat="43.52341" lon="-71.37458">
        <ele>611.0</ele>
      </trkpt>
      <trkpt lat="43.52362" lon="-71.37475">
        <ele>611.73</ele>
      </trkpt>
      <trkpt lat="43.52383" lon="-71.37483">
        <ele>613.06</ele>
      </trkpt>
      <trkpt lat="43.52394" lon="-71.37486">
        <ele>613.77</ele>
      </trkpt>
      <trkpt lat="43.52412" lon="-71.37496">
        <ele>615.28</ele>
      </trkpt>
      <trkpt lat="43.52419" lon="-71.37503">
        <ele>616.58</ele>
      </trkpt>
      <trkpt lat="43.52426" lon="-71.37517">
        <ele>618.84</ele>
      </trkpt>
      <trkpt lat="43.52424" lon="-71.37538">
        <ele>619.9</ele>
      </trkpt>
      <trkpt lat="43.52416" lon="-71.37552">
        <ele>620.54</ele>
      </trkpt>
      <trkpt lat="43.52412" lon="-71.37561">
        <ele>621.08</ele>
      </trkpt>
      <trkpt lat="43.52411" lon="-71.37568">
        <ele>621.87</ele>
      </trkpt>
      <trkpt lat="43.52411" lon="-71.37574">
        <ele>622.76</ele>
      </trkpt>
      <trkpt lat="43.52414" lon="-71.37578">
        <ele>623.85</ele>
      </trkpt>
      <trkpt lat="43.52415" lon="-71.37585">
        <ele>624.85</ele>
      </trkpt>
      <trkpt lat="43.52414" lon="-71.37591">
        <ele>625.49</ele>
      </trkpt>
      <trkpt lat="43.52412" lon="-71.37597">
        <ele>626.21</ele>
      </trkpt>
      <trkpt lat="43.52416" lon="-71.37607">
        <ele>628.93</ele>
      </trkpt>
      <trkpt lat="43.52415" lon="-71.37619">
        <ele>631.16</ele>
      </trkpt>
      <trkpt lat="43.52416" lon="-71.37634">
        <ele>634.29</ele>
      </trkpt>
      <trkpt lat="43.52418" lon="-71.37647">
        <ele>637.04</ele>
      </trkpt>
      <trkpt lat="43.52421" lon="-71.37659">
        <ele>639.11</ele>
      </trkpt>
      <trkpt lat="43.52427" lon="-71.37668">
        <ele>641.12</ele>
      </trkpt>
      <trkpt lat="43.52437" lon="-71.37671">
        <ele>642.29</ele>
      </trkpt>
      <trkpt lat="43.52448" lon="-71.37673">
        <ele>644.07</ele>
      </trkpt>
      <trkpt lat="43.52454" lon="-71.37674">
        <ele>644.82</ele>
      </trkpt>
      <trkpt lat="43.52463" lon="-71.3768">
        <ele>646.44</ele>
      </trkpt>
      <trkpt lat="43.52472" lon="-71.37687">
        <ele>648.17</ele>
      </trkpt>
      <trkpt lat="43.52478" lon="-71.37692">
        <ele>649.98</ele>
      </trkpt>
      <trkpt lat="43.52479" lon="-71.37713">
        <ele>651.47</ele>
      </trkpt>
      <trkpt lat="43.52483" lon="-71.37727">
        <ele>653.33</ele>
      </trkpt>
      <trkpt lat="43.52516" lon="-71.37795">
        <ele>665.73</ele>
      </trkpt>
      <trkpt lat="43.52518" lon="-71.37803">
        <ele>665.9</ele>
      </trkpt>
      <trkpt lat="43.5252" lon="-71.3783">
        <ele>666.32</ele>
      </trkpt>
      <trkpt lat="43.52525" lon="-71.37838">
        <ele>666.9</ele>
      </trkpt>
      <trkpt lat="43.52525" lon="-71.37839">
        <ele>666.79</ele>
      </trkpt>
      <trkpt lat="43.52525" lon="-71.37838">
        <ele>666.9</ele>
      </trkpt>
      <trkpt lat="43.52527" lon="-71.37841">
        <ele>667.0</ele>
      </trkpt>
      <trkpt lat="43.52537" lon="-71.37847">
        <ele>668.99</ele>
      </trkpt>
      <trkpt lat="43.52557" lon="-71.37851">
        <ele>672.31</ele>
      </trkpt>
      <trkpt lat="43.52563" lon="-71.37853">
        <ele>673.61</ele>
      </trkpt>
      <trkpt lat="43.5257" lon="-71.37856">
        <ele>675.37</ele>
      </trkpt>
      <trkpt lat="43.52576" lon="-71.37863">
        <ele>677.83</ele>
      </trkpt>
      <trkpt lat="43.52581" lon="-71.37869">
        <ele>679.99</ele>
      </trkpt>
      <trkpt lat="43.52586" lon="-71.37869">
        <ele>682.15</ele>
      </trkpt>
      <trkpt lat="43.52593" lon="-71.37869">
        <ele>685.04</ele>
      </trkpt>
      <trkpt lat="43.52594" lon="-71.37869">
        <ele>685.15</ele>
      </trkpt>
      <trkpt lat="43.52602" lon="-71.37868">
        <ele>685.98</ele>
      </trkpt>
      <trkpt lat="43.5261" lon="-71.37872">
        <ele>684.94</ele>
      </trkpt>
      <trkpt lat="43.52612" lon="-71.37873">
        <ele>684.55</ele>
      </trkpt>
      <trkpt lat="43.52617" lon="-71.37865">
        <ele>684.1</ele>
      </trkpt>
      <trkpt lat="43.52628" lon="-71.37854">
        <ele>683.18</ele>
      </trkpt>
      <trkpt lat="43.52635" lon="-71.3785">
        <ele>681.64</ele>
      </trkpt>
      <trkpt lat="43.52628" lon="-71.37854">
        <ele>683.18</ele>
      </trkpt>
      <trkpt lat="43.52617" lon="-71.37865">
        <ele>684.1</ele>
      </trkpt>
      <trkpt lat="43.52612" lon="-71.37873">
        <ele>684.55</ele>
      </trkpt>
      <trkpt lat="43.5261" lon="-71.37872">
        <ele>684.94</ele>
      </trkpt>
      <trkpt lat="43.52602" lon="-71.37868">
        <ele>685.98</ele>
      </trkpt>
      <trkpt lat="43.52594" lon="-71.37869">
        <ele>685.15</ele>
      </trkpt>
      <trkpt lat="43.52593" lon="-71.37869">
        <ele>685.04</ele>
      </trkpt>
      <trkpt lat="43.52586" lon="-71.37869">
        <ele>682.15</ele>
      </trkpt>
      <trkpt lat="43.52581" lon="-71.37869">
        <ele>679.99</ele>
      </trkpt>
      <trkpt lat="43.52576" lon="-71.37863">
        <ele>677.83</ele>
      </trkpt>
      <trkpt lat="43.5257" lon="-71.37856">
        <ele>675.37</ele>
      </trkpt>
      <trkpt lat="43.52563" lon="-71.37853">
        <ele>673.61</ele>
      </trkpt>
      <trkpt lat="43.52557" lon="-71.37851">
        <ele>672.31</ele>
      </trkpt>
      <trkpt lat="43.52553" lon="-71.37856">
        <ele>671.6</ele>
      </trkpt>
      <trkpt lat="43.52547" lon="-71.37865">
        <ele>670.15</ele>
      </trkpt>
      <trkpt lat="43.52543" lon="-71.37878">
        <ele>668.46</ele>
      </trkpt>
      <trkpt lat="43.5254" lon="-71.3789">
        <ele>666.52</ele>
      </trkpt>
      <trkpt lat="43.52536" lon="-71.379">
        <ele>664.44</ele>
      </trkpt>
      <trkpt lat="43.52531" lon="-71.379">
        <ele>662.71</ele>
      </trkpt>
      <trkpt lat="43.52524" lon="-71.37895">
        <ele>660.64</ele>
      </trkpt>
      <trkpt lat="43.52518" lon="-71.3789">
        <ele>658.48</ele>
      </trkpt>
      <trkpt lat="43.52519" lon="-71.37888">
        <ele>659.54</ele>
      </trkpt>
      <trkpt lat="43.52518" lon="-71.3789">
        <ele>658.48</ele>
      </trkpt>
      <trkpt lat="43.5251" lon="-71.37894">
        <ele>653.3</ele>
      </trkpt>
      <trkpt lat="43.52504" lon="-71.37902">
        <ele>649.7</ele>
      </trkpt>
      <trkpt lat="43.525" lon="-71.3791">
        <ele>647.72</ele>
      </trkpt>
      <trkpt lat="43.52504" lon="-71.37924">
        <ele>646.62</ele>
      </trkpt>
      <trkpt lat="43.5251" lon="-71.37936">
        <ele>646.99</ele>
      </trkpt>
      <trkpt lat="43.52518" lon="-71.37947">
        <ele>647.28</ele>
      </trkpt>
      <trkpt lat="43.5252" lon="-71.37957">
        <ele>645.61</ele>
      </trkpt>
      <trkpt lat="43.52514" lon="-71.37962">
        <ele>642.74</ele>
      </trkpt>
      <trkpt lat="43.52509" lon="-71.3797">
        <ele>640.18</ele>
      </trkpt>
      <trkpt lat="43.52503" lon="-71.37976">
        <ele>638.11</ele>
      </trkpt>
      <trkpt lat="43.52486" lon="-71.37981">
        <ele>634.54</ele>
      </trkpt>
      <trkpt lat="43.52449" lon="-71.37999">
        <ele>623.13</ele>
      </trkpt>
      <trkpt lat="43.52441" lon="-71.38006">
        <ele>618.22</ele>
      </trkpt>
      <trkpt lat="43.5243" lon="-71.38023">
        <ele>608.58</ele>
      </trkpt>
      <trkpt lat="43.52423" lon="-71.38032">
        <ele>604.77</ele>
      </trkpt>
      <trkpt lat="43.52401" lon="-71.38049">
        <ele>593.65</ele>
      </trkpt>
      <trkpt lat="43.52384" lon="-71.38056">
        <ele>586.85</ele>
      </trkpt>
      <trkpt lat="43.52374" lon="-71.38057">
        <ele>584.38</ele>
      </trkpt>
      <trkpt lat="43.52363" lon="-71.38055">
        <ele>582.58</ele>
      </trkpt>
      <trkpt lat="43.52356" lon="-71.38051">
        <ele>582.92</ele>
      </trkpt>
      <trkpt lat="43.52343" lon="-71.3804">
        <ele>583.45</ele>
      </trkpt>
      <trkpt lat="43.52335" lon="-71.38037">
        <ele>582.37</ele>
      </trkpt>
      <trkpt lat="43.52329" lon="-71.38042">
        <ele>579.74</ele>
      </trkpt>
      <trkpt lat="43.52327" lon="-71.38049">
        <ele>577.27</ele>
      </trkpt>
      <trkpt lat="43.5233" lon="-71.38074">
        <ele>572.3</ele>
      </trkpt>
      <trkpt lat="43.52323" lon="-71.38101">
        <ele>564.15</ele>
      </trkpt>
      <trkpt lat="43.52323" lon="-71.38115">
        <ele>560.62</ele>
      </trkpt>
      <trkpt lat="43.52341" lon="-71.38156">
        <ele>549.16</ele>
      </trkpt>
      <trkpt lat="43.52352" lon="-71.38173">
        <ele>546.7</ele>
      </trkpt>
      <trkpt lat="43.52354" lon="-71.38179">
        <ele>546.52</ele>
      </trkpt>
      <trkpt lat="43.52358" lon="-71.38203">
        <ele>545.07</ele>
      </trkpt>
      <trkpt lat="43.52358" lon="-71.38217">
        <ele>543.85</ele>
      </trkpt>
      <trkpt lat="43.52353" lon="-71.38248">
        <ele>538.03</ele>
      </trkpt>
      <trkpt lat="43.52337" lon="-71.38299">
        <ele>522.6</ele>
      </trkpt>
      <trkpt lat="43.52324" lon="-71.3832">
        <ele>512.85</ele>
      </trkpt>
      <trkpt lat="43.52321" lon="-71.38328">
        <ele>509.96</ele>
      </trkpt>
      <trkpt lat="43.52318" lon="-71.38362">
        <ele>502.5</ele>
      </trkpt>
      <trkpt lat="43.52316" lon="-71.38368">
        <ele>500.77</ele>
      </trkpt>
      <trkpt lat="43.52311" lon="-71.38375">
        <ele>497.97</ele>
      </trkpt>
      <trkpt lat="43.52305" lon="-71.3838">
        <ele>495.74</ele>
      </trkpt>
      <trkpt lat="43.52279" lon="-71.38393">
        <ele>487.43</ele>
      </trkpt>
      <trkpt lat="43.52266" lon="-71.38404">
        <ele>480.91</ele>
      </trkpt>
      <trkpt lat="43.52251" lon="-71.38424">
        <ele>475.32</ele>
      </trkpt>
      <trkpt lat="43.52229" lon="-71.38438">
        <ele>466.01</ele>
      </trkpt>
      <trkpt lat="43.52218" lon="-71.38451">
        <ele>462.63</ele>
      </trkpt>
      <trkpt lat="43.52207" lon="-71.38468">
        <ele>459.07</ele>
      </trkpt>
      <trkpt lat="43.52194" lon="-71.38498">
        <ele>455.11</ele>
      </trkpt>
      <trkpt lat="43.52193" lon="-71.38513">
        <ele>454.69</ele>
      </trkpt>
      <trkpt lat="43.52194" lon="-71.3854">
        <ele>453.63</ele>
      </trkpt>
      <trkpt lat="43.5219" lon="-71.38548">
        <ele>452.52</ele>
      </trkpt>
      <trkpt lat="43.52145" lon="-71.38577">
        <ele>439.0</ele>
      </trkpt>
      <trkpt lat="43.52124" lon="-71.38579">
        <ele>432.46</ele>
      </trkpt>
      <trkpt lat="43.52103" lon="-71.38586">
        <ele>426.34</ele>
      </trkpt>
      <trkpt lat="43.52076" lon="-71.38601">
        <ele>419.42</ele>
      </trkpt>
      <trkpt lat="43.52054" lon="-71.38609">
        <ele>413.72</ele>
      </trkpt>
      <trkpt lat="43.52026" lon="-71.38613">
        <ele>403.07</ele>
      </trkpt>
      <trkpt lat="43.52004" lon="-71.3861">
        <ele>396.3</ele>
      </trkpt>
      <trkpt lat="43.51968" lon="-71.38618">
        <ele>387.49</ele>
      </trkpt>
      <trkpt lat="43.5191" lon="-71.3864">
        <ele>370.84</ele>
      </trkpt>
      <trkpt lat="43.51876" lon="-71.38647">
        <ele>359.7</ele>
      </trkpt>
      <trkpt lat="43.51863" lon="-71.38652">
        <ele>355.61</ele>
      </trkpt>
      <trkpt lat="43.51853" lon="-71.38659">
        <ele>353.27</ele>
      </trkpt>
      <trkpt lat="43.51842" lon="-71.38672">
        <ele>351.41</ele>
      </trkpt>
      <trkpt lat="43.51813" lon="-71.38711">
        <ele>347.57</ele>
      </trkpt>
      <trkpt lat="43.51784" lon="-71.3876">
        <ele>338.34</ele>
      </trkpt>
      <trkpt lat="43.5178" lon="-71.38771">
        <ele>337.48</ele>
      </trkpt>
      <trkpt lat="43.51774" lon="-71.38794">
        <ele>336.18</ele>
      </trkpt>
      <trkpt lat="43.51774" lon="-71.38794">
        <ele>336.18</ele>
      </trkpt>
      <trkpt lat="43.51773" lon="-71.38798">
        <ele>335.88</ele>
      </trkpt>
      <trkpt lat="43.51766" lon="-71.38838">
        <ele>333.09</ele>
      </trkpt>
      <trkpt lat="43.51745" lon="-71.38897">
        <ele>325.04</ele>
      </trkpt>
      <trkpt lat="43.51742" lon="-71.3891">
        <ele>322.75</ele>
      </trkpt>
      <trkpt lat="43.51742" lon="-71.38936">
        <ele>318.58</ele>
      </trkpt>
      <trkpt lat="43.51741" lon="-71.38947">
        <ele>316.82</ele>
      </trkpt>
      <trkpt lat="43.51737" lon="-71.38961">
        <ele>315.6</ele>
      </trkpt>
      <trkpt lat="43.51727" lon="-71.38975">
        <ele>313.52</ele>
      </trkpt>
      <trkpt lat="43.51736" lon="-71.38988">
        <ele>313.78</ele>
      </trkpt>
      <trkpt lat="43.51759" lon="-71.39033">
        <ele>313.97</ele>
      </trkpt>
      <trkpt lat="43.51759" lon="-71.39033">
        <ele>313.97</ele>
      </trkpt>
    </trkseg>
  </trk>
</gpx>
